{
"type": "FeatureCollection",
"name": "saluran_phb_matraman",
"crs": { "type": "name", "properties": { "name": "urn:ogc:def:crs:OGC:1.3:CRS84" } },
"features": [
{ "type": "Feature", "properties": { "OBJECTID": 182, "toponimi": "Sal. Phb Beo", "kewenangan": "Pemprov DKI", "jenis": "Saluran Drainase Tersier", "panjang": "1213", "lebar": "1 - 1.5", "kedalaman": "1.5", "kota": "Jakarta Timur", "kecamatan": "Matraman", "lebar_min": 1.0, "lebar_max": 1.5, "kedalaman_": 1.5, "kedalaman1": 1.5, "Shape_Leng": 1.2079489638600001 }, "geometry": { "type": "MultiLineString", "coordinates": [ [ [ 106.866942721133952, -6.211375415679615 ], [ 106.867024548932108, -6.211441077585675 ], [ 106.867313238843437, -6.211623065377942 ], [ 106.867608082450957, -6.211855267748678 ], [ 106.867679972001568, -6.211905251330867 ], [ 106.867839137972354, -6.211962102951484 ], [ 106.868032728233089, -6.211951850615553 ], [ 106.868208547652401, -6.211918694609045 ], [ 106.868457057355002, -6.211891024040924 ], [ 106.868627281467084, -6.211898077232824 ], [ 106.868893197859705, -6.211925845432953 ], [ 106.869067199942776, -6.211919489215267 ], [ 106.869164328062695, -6.211913635174002 ], [ 106.869183918012467, -6.211876486680163 ], [ 106.869185239292975, -6.211827440819508 ], [ 106.869186560577788, -6.21177839586286 ], [ 106.869191368522522, -6.211701229410635 ], [ 106.86919617556245, -6.211624062057609 ], [ 106.869223171760154, -6.211549155332792 ], [ 106.869326742796034, -6.211383114369288 ], [ 106.869378789358606, -6.211287921274292 ], [ 106.869412418221842, -6.211226414147684 ], [ 106.869447695522339, -6.211150201497995 ], [ 106.86946087936154, -6.211119325142829 ], [ 106.869469986994432, -6.211097996568201 ], [ 106.869473987733301, -6.211088569306614 ], [ 106.869478041855956, -6.211079164460212 ], [ 106.869482147558813, -6.211069782939415 ], [ 106.869486305742015, -6.211060423836963 ], [ 106.869490516408845, -6.211051088057021 ], [ 106.869494778659032, -6.211041776506858 ], [ 106.869499092492518, -6.211032489186523 ], [ 106.869503458809632, -6.21102322518858 ], [ 106.869506918851656, -6.21101598336416 ], [ 106.869506946664359, -6.211015928112662 ], [ 106.869511814314549, -6.211005869402005 ], [ 106.86951674260176, -6.210995840314109 ], [ 106.86952173243256, -6.210985841749907 ], [ 106.869526782903662, -6.21097587371252 ], [ 106.869531894018337, -6.210965937106054 ], [ 106.869537065773059, -6.210956031026603 ], [ 106.869542298174395, -6.21094615728211 ], [ 106.869547338086235, -6.210936781501414 ], [ 106.869552433211211, -6.210927434458409 ], [ 106.869557581748722, -6.210918117967774 ], [ 106.869562784598926, -6.210908831122211 ], [ 106.869568040861665, -6.210899574828948 ], [ 106.869573351443734, -6.210890349989118 ], [ 106.869578714531613, -6.210881154800724 ], [ 106.869584131941821, -6.210871991969711 ], [ 106.8696354774535, -6.210792706284257 ], [ 106.869661480398108, -6.210752544195491 ], [ 106.869664662085754, -6.21074809537483 ], [ 106.869667901744791, -6.210743688844434 ], [ 106.869671200285183, -6.210739326409248 ], [ 106.86967455499321, -6.210735007175018 ], [ 106.869677966775555, -6.210730732042383 ], [ 106.869681434735028, -6.210726502822983 ], [ 106.869684957971444, -6.210722320424064 ], [ 106.869688535578348, -6.210718183944643 ], [ 106.869692168465335, -6.210714095189909 ], [ 106.869695853925208, -6.21071005507361 ], [ 106.869699592864748, -6.210706064496557 ], [ 106.869703383473805, -6.210702122561077 ], [ 106.869707226665255, -6.210698231976366 ], [ 106.869711119725821, -6.210694391847873 ], [ 106.869715063561941, -6.210690603076613 ], [ 106.869719057276569, -6.210686867473969 ], [ 106.86972309996618, -6.210683185043137 ], [ 106.869727190727573, -6.210679555787238 ], [ 106.869731328660265, -6.210675980613824 ], [ 106.869736361504565, -6.210672027958717 ], [ 106.869741351691758, -6.210668020301048 ], [ 106.869746298327684, -6.210663960356647 ], [ 106.86975120050235, -6.210659846320131 ], [ 106.869756059125748, -6.210655679996683 ], [ 106.869760871487642, -6.210651461396171 ], [ 106.869765555644207, -6.21064726766066 ], [ 106.869766954225753, -6.210645989672247 ], [ 106.869770194455398, -6.210643025261298 ], [ 106.869774788818191, -6.210638732386446 ], [ 106.869779337842076, -6.210634392656042 ], [ 106.869783839713477, -6.210630004268044 ], [ 106.869788295339418, -6.210625568123412 ], [ 106.869792703822412, -6.210621086033704 ], [ 106.869797064249809, -6.210616555289632 ], [ 106.869797118256386, -6.210616498137203 ], [ 106.869801377543908, -6.210611981312852 ], [ 106.869806797793018, -6.210606184627444 ], [ 106.869812172718966, -6.210600345607109 ], [ 106.869817500514998, -6.210594464258167 ], [ 106.869822782087596, -6.210588541481647 ], [ 106.869828017436816, -6.210582577277484 ], [ 106.869833205659233, -6.210576571648891 ], [ 106.86983834585152, -6.210570524599092 ], [ 106.869843438019657, -6.210564437936352 ], [ 106.86984861710215, -6.210558146628164 ], [ 106.869853745444061, -6.210551813908303 ], [ 106.86985882304225, -6.210545438872719 ], [ 106.869863848099286, -6.210539024240112 ], [ 106.869868820608488, -6.210532568202275 ], [ 106.869873741476752, -6.210526071660172 ], [ 106.869878609807344, -6.210519536425188 ], [ 106.86988342469283, -6.210512961596483 ], [ 106.869888214007148, -6.210506309101072 ], [ 106.869892948979683, -6.210499618823346 ], [ 106.869897628700627, -6.21049288895837 ], [ 106.869902254083115, -6.210486122215116 ], [ 106.869906824217196, -6.210479316788656 ], [ 106.869911339112463, -6.210472475391452 ], [ 106.869915797862305, -6.210465597122395 ], [ 106.869920200466666, -6.210458681981552 ], [ 106.869924546935096, -6.210451732681375 ], [ 106.869928836354646, -6.210444746512624 ], [ 106.869933068738121, -6.210437727091974 ], [ 106.869937244079068, -6.210430672610894 ], [ 106.869941362383756, -6.21042358487795 ], [ 106.869945421842289, -6.210416462995155 ], [ 106.870021527398208, -6.210286379549763 ], [ 106.870022154005142, -6.210285241720798 ], [ 106.870025079198442, -6.210280308276952 ], [ 106.870115178188172, -6.210126307580868 ], [ 106.870190541600422, -6.210000227627364 ], [ 106.870209478644625, -6.209969340882886 ], [ 106.870267359633218, -6.209874933663636 ], [ 106.870283174315887, -6.209851481038122 ], [ 106.87029894099922, -6.209827996032662 ], [ 106.870314660589656, -6.209804479548343 ], [ 106.870316242242538, -6.209802084285548 ], [ 106.870324024136977, -6.209790396842511 ], [ 106.870325484157945, -6.209788096945529 ], [ 106.870327003947565, -6.209785836619992 ], [ 106.870328580789149, -6.209783614067081 ], [ 106.870330211985035, -6.209781432913 ], [ 106.870331898441805, -6.20977929405861 ], [ 106.870333638352648, -6.209777197510481 ], [ 106.870335429920232, -6.209775145987283 ], [ 106.870337273147825, -6.209773140393117 ], [ 106.870339166231204, -6.209771181638665 ], [ 106.870448869020947, -6.209618592638083 ], [ 106.870485402680544, -6.209539519336114 ], [ 106.870521936332025, -6.209460446034654 ], [ 106.87056702862175, -6.209395217580846 ], [ 106.870612120904582, -6.209329990030448 ], [ 106.870657212271254, -6.209264761578443 ], [ 106.870702304534319, -6.209199534026655 ], [ 106.87074739678458, -6.209134305570305 ], [ 106.87079592984685, -6.209068682492445 ], [ 106.870844463801745, -6.209003059410364 ], [ 106.870892996838947, -6.208937435426495 ], [ 106.870941530772029, -6.208871812342439 ], [ 106.870990063790657, -6.208806189260667 ], [ 106.871034780574263, -6.20874287621426 ], [ 106.871079497348362, -6.208679563167124 ], [ 106.871124213209455, -6.208616250122385 ], [ 106.871168929964483, -6.208552937073891 ], [ 106.871210248061686, -6.208498380084635 ], [ 106.871251566148004, -6.20844382219031 ], [ 106.871292884229646, -6.208389265199567 ], [ 106.871334202303558, -6.208334708207927 ], [ 106.871384869920703, -6.208264677068098 ], [ 106.871435538423015, -6.208194644115696 ], [ 106.871486206913261, -6.20812461116239 ], [ 106.871536875394611, -6.208054579112135 ], [ 106.871569283373091, -6.208004097890808 ], [ 106.871591002184715, -6.207948171700011 ], [ 106.871535331659672, -6.207888085222199 ], [ 106.871459748872297, -6.207858994716246 ], [ 106.871384684565584, -6.207828592249137 ], [ 106.871310159548315, -6.207796885885041 ], [ 106.871236198249392, -6.207763885483014 ], [ 106.871162822387419, -6.207729600912193 ], [ 106.87114066835899, -6.207683748369108 ], [ 106.871189533781006, -6.207627345565667 ], [ 106.871234028468521, -6.207567428408121 ], [ 106.871273899749085, -6.207504336847254 ], [ 106.871317056421219, -6.20744135844342 ], [ 106.871358402802784, -6.207377174877273 ], [ 106.871397905654703, -6.207311839611559 ], [ 106.871435533538857, -6.207245404294318 ], [ 106.87147063398389, -6.207166816181489 ], [ 106.871464361581843, -6.207093723303981 ], [ 106.871447177981679, -6.207022404971982 ], [ 106.871426646843787, -6.206953330821281 ], [ 106.871391781810203, -6.206890274738421 ], [ 106.871344208652459, -6.20683617579152 ], [ 106.871294330201778, -6.206779613038362 ], [ 106.871240414184243, -6.206726890916324 ], [ 106.871182754342215, -6.206678298618304 ], [ 106.871121666011433, -6.206634099944899 ], [ 106.87104517653853, -6.206589702534853 ], [ 106.870967417570753, -6.206547569974256 ], [ 106.870921515414054, -6.206545819022637 ], [ 106.870840957457318, -6.206507507327536 ], [ 106.870762506185571, -6.206465041734887 ], [ 106.870708707131882, -6.206393467567902 ], [ 106.87065939686812, -6.20635246858032 ], [ 106.870605175769541, -6.206318237331319 ], [ 106.870522016466552, -6.206326185715248 ], [ 106.870472338166309, -6.206337843966324 ], [ 106.870405002407267, -6.206324873132448 ], [ 106.870338372540189, -6.206308653891773 ], [ 106.870255033368849, -6.206293789321996 ], [ 106.870171829792369, -6.206278177429878 ], [ 106.870088769948467, -6.20626181999448 ], [ 106.87000586016508, -6.206244717897798 ], [ 106.869923106769804, -6.20622687202152 ], [ 106.869848877879434, -6.206206554812487 ], [ 106.869774531260219, -6.206186670191532 ], [ 106.869700070535188, -6.206167220858514 ], [ 106.869625497504913, -6.206148204998559 ], [ 106.869550814888981, -6.206129625314684 ], [ 106.869487829632959, -6.206113154384814 ], [ 106.869424845285153, -6.206096684347211 ], [ 106.869361860032782, -6.206080213399838 ] ] ] } },
{ "type": "Feature", "properties": { "OBJECTID": 183, "toponimi": "Sal. Phb Bunga Dalam", "kewenangan": "Pemprov DKI", "jenis": "Saluran Drainase Tersier", "panjang": "707", "lebar": "1", "kedalaman": "1", "kota": "Jakarta Timur", "kecamatan": "Matraman", "lebar_min": 1.0, "lebar_max": 1.0, "kedalaman_": 1.0, "kedalaman1": 1.0, "Shape_Leng": 0.82222497315999998 }, "geometry": { "type": "MultiLineString", "coordinates": [ [ [ 106.858804162353692, -6.211416487168529 ], [ 106.858760187549308, -6.211452081036127 ], [ 106.858728288419499, -6.211488643315985 ], [ 106.858727151341739, -6.211491590342813 ], [ 106.85872670175695, -6.2114927194065 ], [ 106.858726183844865, -6.211493944550853 ], [ 106.858723374923372, -6.211500380265447 ], [ 106.858722341964395, -6.211502617163219 ], [ 106.858719266082048, -6.211508929042206 ], [ 106.858718097723539, -6.211511200773626 ], [ 106.858714751206207, -6.211517371651013 ], [ 106.858714097590052, -6.211518544831208 ], [ 106.858713415918643, -6.211519704547569 ], [ 106.858709790571751, -6.211525716368935 ], [ 106.858708427548805, -6.21152786943568 ], [ 106.858704545042826, -6.211533718508266 ], [ 106.858703137305795, -6.211535745150106 ], [ 106.858699012080294, -6.211541426902304 ], [ 106.858698218955567, -6.211542493882198 ], [ 106.858697469739141, -6.211543457633854 ], [ 106.858693103534478, -6.211548953072359 ], [ 106.858691381530221, -6.211551020601465 ], [ 106.858686767955419, -6.211556310761413 ], [ 106.858685058833728, -6.211558187468089 ], [ 106.858680220481787, -6.211563274078358 ], [ 106.858679356264872, -6.211564164093168 ], [ 106.858678473008425, -6.211565035187648 ], [ 106.858673424315938, -6.211569912772569 ], [ 106.858671561065364, -6.211571636314078 ], [ 106.858666307402331, -6.211576290388268 ], [ 106.85866425356754, -6.211578028161873 ], [ 106.858658793047709, -6.211582436127964 ], [ 106.858657835303958, -6.211583192656193 ], [ 106.858656774720245, -6.211583993849509 ], [ 106.858651126338614, -6.21158816196995 ], [ 106.858649111152403, -6.211589584961028 ], [ 106.858643293875375, -6.211593511360753 ], [ 106.858641152048193, -6.21159489049309 ], [ 106.858635170342424, -6.211598560689936 ], [ 106.858634016311385, -6.211599251000284 ], [ 106.858632848629895, -6.211599913329689 ], [ 106.858629684455138, -6.211601661333863 ], [ 106.858626706033135, -6.211603305611417 ], [ 106.85862444426607, -6.211604490771426 ], [ 106.858618158876254, -6.211607613211868 ], [ 106.85861593367234, -6.211608661715614 ], [ 106.858609523571488, -6.211611517867826 ], [ 106.858608300305775, -6.211612045673108 ], [ 106.858607168958969, -6.211612506247772 ], [ 106.858600641320976, -6.211615080715895 ], [ 106.858598126572616, -6.211616006367536 ], [ 106.858591488558531, -6.211618280139115 ], [ 106.858589052788716, -6.211619055423045 ], [ 106.858582320695902, -6.211621038386498 ], [ 106.858581137410383, -6.211621373465807 ], [ 106.858579942297467, -6.211621685078542 ], [ 106.858574823146739, -6.211622961652645 ], [ 106.858563191400577, -6.211662774587198 ], [ 106.858550939188135, -6.211704711759009 ], [ 106.85846432551277, -6.212001163730319 ], [ 106.858378175128379, -6.212296030001694 ], [ 106.858376157494988, -6.212302936714756 ], [ 106.858374655772593, -6.212307790082349 ], [ 106.858366752084578, -6.212328121608062 ], [ 106.85836380084875, -6.212335713336112 ], [ 106.858356622435608, -6.212354179749641 ], [ 106.858356068513601, -6.212355442091162 ], [ 106.858352592733041, -6.212363141448729 ], [ 106.858351865466148, -6.212364696442127 ], [ 106.858348003945949, -6.212372666593849 ], [ 106.85834705106916, -6.212374553301582 ], [ 106.858340386243484, -6.212387214125371 ], [ 106.858322222739787, -6.212418650394079 ], [ 106.858318211940045, -6.212425017095501 ], [ 106.85831744542655, -6.212426201522278 ], [ 106.858312418834956, -6.212433776130355 ], [ 106.858307247348648, -6.212441254502743 ], [ 106.858306247597895, -6.212442656746799 ], [ 106.858296427641378, -6.212456040228463 ], [ 106.858295236945139, -6.212457611316664 ], [ 106.85828500570905, -6.212470681596671 ], [ 106.858284027000735, -6.212471901127024 ], [ 106.858278644404024, -6.21247843630093 ], [ 106.858277920118311, -6.212479295986867 ], [ 106.858272518602007, -6.212485588913041 ], [ 106.858271525124039, -6.212486718983749 ], [ 106.858265932648834, -6.212492919452743 ], [ 106.858265522259046, -6.212493374781584 ], [ 106.858259389775895, -6.212499910781959 ], [ 106.858258166389064, -6.212501177284016 ], [ 106.858246478676136, -6.212512941653282 ], [ 106.85824520642575, -6.212514186627226 ], [ 106.85823920025797, -6.212519901208833 ], [ 106.858238188050748, -6.212520843280613 ], [ 106.858232060345358, -6.212526423569777 ], [ 106.858230894874893, -6.212527459308196 ], [ 106.858224343765627, -6.212533133309075 ], [ 106.858223127631149, -6.212534149334055 ], [ 106.858210267150127, -6.212544612220463 ], [ 106.858208474155717, -6.212546018155747 ], [ 106.858195242508671, -6.212556013088413 ], [ 106.858193767303547, -6.212557094218756 ], [ 106.858187009858057, -6.212561898240954 ], [ 106.858185881448236, -6.212562681589197 ], [ 106.8581790186864, -6.212567339507816 ], [ 106.858177754039687, -6.212568176680044 ], [ 106.85816328494397, -6.212577490608841 ], [ 106.858148305161976, -6.212586742136444 ], [ 106.858089652131582, -6.212620493350384 ], [ 106.858088633024906, -6.212621014108922 ], [ 106.85802940679558, -6.212651308026177 ], [ 106.858005416850901, -6.212663724111599 ], [ 106.857988775582868, -6.212671951638194 ], [ 106.857970913292078, -6.212680317269353 ], [ 106.857953883399759, -6.212687993720275 ], [ 106.85794176468336, -6.212693310245341 ], [ 106.857847390241304, -6.212741667375058 ] ], [ [ 106.858744704323271, -6.211457399446208 ], [ 106.858749501304317, -6.211451079711027 ], [ 106.858760808136722, -6.211439949588748 ], [ 106.858773594643651, -6.211430558385699 ], [ 106.858787594981337, -6.211423100525505 ], [ 106.85879528455898, -6.211420031015605 ], [ 106.858804162353692, -6.211416487168529 ] ], [ [ 106.862271852448501, -6.211288991343466 ], [ 106.862525180005207, -6.211109348861995 ], [ 106.862775526645805, -6.210924264750681 ], [ 106.862817245308477, -6.210891822332415 ], [ 106.862717395479635, -6.210707970419788 ], [ 106.862539011735791, -6.210283974678758 ], [ 106.862460633391947, -6.210088085993653 ], [ 106.862456445023412, -6.210079643269804 ], [ 106.862448829074935, -6.210081796652706 ], [ 106.862433786961731, -6.210087147049373 ], [ 106.862047366034972, -6.210224596135038 ], [ 106.862032138669917, -6.210229681353008 ], [ 106.862017293269474, -6.210234708264426 ], [ 106.862002452640141, -6.210239807491214 ], [ 106.861987718743052, -6.210244941604119 ], [ 106.861972889450044, -6.210250181838594 ], [ 106.861958083881902, -6.210255488896699 ], [ 106.861943404893694, -6.21026082263368 ], [ 106.861928725262004, -6.210266230513397 ], [ 106.861913992652859, -6.210271731707245 ], [ 106.861899354136966, -6.210277270544131 ], [ 106.86188471137342, -6.210282886248851 ], [ 106.861870108562059, -6.210288558774459 ], [ 106.86185552766851, -6.210294298130181 ], [ 106.861840991244364, -6.210300094290851 ], [ 106.861826430718722, -6.210305973718312 ], [ 106.861811960675496, -6.210311891705772 ], [ 106.861797441271804, -6.210317903898819 ], [ 106.861782986185062, -6.210323964689592 ], [ 106.861768558424416, -6.210330088674855 ], [ 106.861754156185782, -6.210336276765026 ], [ 106.861739792101943, -6.210342524394869 ], [ 106.861725402118907, -6.210348858010345 ], [ 106.861711118845918, -6.210355220182984 ], [ 106.861696876431751, -6.210361640077582 ], [ 106.861682566625717, -6.210368165091 ], [ 106.861668387882048, -6.210374706821985 ], [ 106.861654141752865, -6.210381355480123 ], [ 106.861639956326968, -6.21038805274875 ], [ 106.861625827993564, -6.210394799544843 ], [ 106.861611696315862, -6.210401623205631 ], [ 106.861609812187552, -6.210402543032665 ], [ 106.861597611811618, -6.210408501853603 ], [ 106.861583617767849, -6.210415412732647 ], [ 106.861572272849273, -6.210421076500733 ], [ 106.861569472471984, -6.210422475137632 ], [ 106.861564292096347, -6.210425090101053 ], [ 106.861563945775956, -6.210425264917555 ], [ 106.861497402021826, -6.210459703272474 ], [ 106.861486078276457, -6.210465736764511 ], [ 106.861472248736249, -6.210473183226936 ], [ 106.861458436606028, -6.210480699247828 ], [ 106.861444744683709, -6.210488228407945 ], [ 106.861431043121414, -6.2104958425923 ], [ 106.861417374292998, -6.210503516335551 ], [ 106.861403784189406, -6.21051122506362 ], [ 106.861390078950095, -6.210519078861393 ], [ 106.861387698107578, -6.210520312369358 ], [ 106.860613207784326, -6.210880736341815 ], [ 106.860467949022564, -6.210947493843909 ], [ 106.860037491302847, -6.21092416225246 ], [ 106.860008302013355, -6.210935813674751 ], [ 106.858804162353692, -6.211416487168529 ] ] ] } },
{ "type": "Feature", "properties": { "OBJECTID": 184, "toponimi": "Sal. Phb Kesatrian", "kewenangan": "Pemprov DKI", "jenis": "Saluran Drainase Tersier", "panjang": "351", "lebar": "1.5 - 2", "kedalaman": "1", "kota": "Jakarta Timur", "kecamatan": "Matraman", "lebar_min": 1.5, "lebar_max": 2.0, "kedalaman_": 1.0, "kedalaman1": 1.0, "Shape_Leng": 0.34687234202 }, "geometry": { "type": "MultiLineString", "coordinates": [ [ [ 106.85734736088817, -6.205861611443861 ], [ 106.857309383404825, -6.205730929001279 ], [ 106.857313151837445, -6.205714648675853 ], [ 106.857211823670042, -6.205448985486939 ], [ 106.857217436343873, -6.205413559907894 ], [ 106.857225867931206, -6.205363771372729 ], [ 106.857240089160456, -6.205329273668913 ], [ 106.857212796545511, -6.205181049346097 ], [ 106.857160393323312, -6.204961145905457 ], [ 106.857089602485772, -6.204678149962702 ], [ 106.857026266766553, -6.204613303588381 ], [ 106.856982640084823, -6.204442171349826 ], [ 106.856890425326, -6.204048249777308 ], [ 106.856868212683906, -6.203985172465974 ], [ 106.856766933025497, -6.204006579869114 ], [ 106.856366606904047, -6.20409506099456 ], [ 106.85606661361652, -6.204165009449885 ], [ 106.855793660883307, -6.204194440096576 ] ] ] } },
{ "type": "Feature", "properties": { "OBJECTID": 185, "toponimi": "Sal. Phb Pramuka", "kewenangan": "Pemprov DKI", "jenis": "Saluran Drainase Tersier", "panjang": "2455", "lebar": "1.5 - 2", "kedalaman": "2 - 2.5", "kota": "Jakarta Timur", "kecamatan": "Matraman", "lebar_min": 1.5, "lebar_max": 2.0, "kedalaman_": 2.0, "kedalaman1": 2.5, "Shape_Leng": 1.45786983624 }, "geometry": { "type": "MultiLineString", "coordinates": [ [ [ 106.873278370392853, -6.192274952486055 ], [ 106.872832367634118, -6.19220643494528 ], [ 106.872361338709837, -6.192169628677232 ], [ 106.871672916588437, -6.192169666186344 ], [ 106.871108488925685, -6.192219022825922 ], [ 106.870328528476946, -6.192290669696513 ], [ 106.870020287756873, -6.192304180120582 ], [ 106.869475466723557, -6.192335083160281 ], [ 106.868755000797719, -6.19239982030277 ], [ 106.868303431179157, -6.192458823903671 ], [ 106.867555572027001, -6.192551165936973 ], [ 106.86680403068047, -6.192616008435632 ], [ 106.866128971897368, -6.19267818956758 ], [ 106.865373937002715, -6.192769358064295 ], [ 106.864899845721609, -6.192882264836856 ], [ 106.864172617278385, -6.193064239156477 ], [ 106.863659227398557, -6.193217951242395 ], [ 106.863136480666668, -6.193430305081751 ], [ 106.862626942762844, -6.193660554207332 ], [ 106.862418400666371, -6.193835920423238 ], [ 106.862199934880721, -6.193908454787334 ], [ 106.861819249524558, -6.194073660451807 ], [ 106.861525890295511, -6.194261286605489 ], [ 106.861250459642875, -6.194448848391359 ], [ 106.860734479832985, -6.194804704277613 ], [ 106.860718894056632, -6.194826727549255 ] ] ] } },
{ "type": "Feature", "properties": { "OBJECTID": 186, "toponimi": "Sal. Phb Kemuning", "kewenangan": "Pemprov DKI", "jenis": "Saluran Drainase Tersier", "panjang": "506", "lebar": "1 - 1.5", "kedalaman": "1.5", "kota": "Jakarta Timur", "kecamatan": "Matraman", "lebar_min": 1.0, "lebar_max": 1.5, "kedalaman_": 1.5, "kedalaman1": 1.5, "Shape_Leng": 0.53832758841999995 }, "geometry": { "type": "MultiLineString", "coordinates": [ [ [ 106.864740344564041, -6.196873324193766 ], [ 106.864802375548621, -6.196877199123724 ], [ 106.864806620892125, -6.196877464479512 ], [ 106.865074829315589, -6.196894218055106 ], [ 106.865090944086106, -6.196895224651612 ], [ 106.865112559134189, -6.196896508460852 ], [ 106.865134180267916, -6.196897724436162 ], [ 106.865155805674178, -6.196898870775734 ], [ 106.865177433549221, -6.196899948389885 ], [ 106.865199065700196, -6.19690095727243 ], [ 106.865220700316343, -6.196901896525569 ], [ 106.865242337401412, -6.196902767053275 ], [ 106.865263977858646, -6.196903568852608 ], [ 106.865285620784732, -6.196904301926552 ], [ 106.86530726617633, -6.19690496537101 ], [ 106.865328913133254, -6.196905560093444 ], [ 106.865350561651979, -6.196906085189612 ], [ 106.865372211739441, -6.196906542467767 ], [ 106.865393863388974, -6.196906930119611 ], [ 106.865415516603676, -6.196907249049422 ], [ 106.865437170480234, -6.196907499260181 ], [ 106.865458792488369, -6.196907679058278 ], [ 106.865477303738771, -6.196907808318434 ], [ 106.865985790398966, -6.196905615671438 ], [ 106.866004817673954, -6.196905533333276 ], [ 106.86616422542059, -6.196904845680448 ], [ 106.866441721311631, -6.196903649147879 ], [ 106.866468906611317, -6.196903531744407 ], [ 106.866590321209259, -6.196903007552255 ], [ 106.86664404494465, -6.196902775910326 ], [ 106.86664676338529, -6.196902764530988 ], [ 106.866653621374581, -6.196901965525952 ], [ 106.866660264142169, -6.196900081390137 ], [ 106.866666521106197, -6.196897160644503 ], [ 106.866672232618939, -6.196893277991576 ], [ 106.866677252675956, -6.196888534306488 ], [ 106.866681367960126, -6.196883157282989 ], [ 106.866681313206271, -6.196883258740955 ], [ 106.866684441921493, -6.196883535246052 ], [ 106.866684753696902, -6.196883559464611 ], [ 106.866699509509019, -6.196884521067518 ], [ 106.866700046243579, -6.196884545398183 ], [ 106.866707424473518, -6.196884732800523 ], [ 106.866707859949969, -6.196884736692185 ], [ 106.866715276108977, -6.196884662660574 ], [ 106.866715778376403, -6.196884648233929 ], [ 106.866723135755365, -6.196884301354831 ], [ 106.866723670470293, -6.196884265114337 ], [ 106.866731003339623, -6.19688362808809 ], [ 106.866731575909924, -6.196883566397928 ], [ 106.866738872451549, -6.19688261847074 ], [ 106.866739421456373, -6.196882535163965 ], [ 106.866746728658725, -6.196881278882763 ], [ 106.866747214384532, -6.196881184948912 ], [ 106.866754416690469, -6.196879644228595 ], [ 106.866754951090527, -6.196879518477922 ], [ 106.866762092739521, -6.196877685025413 ], [ 106.866762565686628, -6.196877554066297 ], [ 106.866769648596872, -6.196875459520167 ], [ 106.866770064627602, -6.196875328761397 ], [ 106.866777088903902, -6.196873002958378 ], [ 106.866777496765422, -6.196872861378462 ], [ 106.866785819450286, -6.196869807680988 ], [ 106.866786260637355, -6.196869637050697 ], [ 106.866802715071216, -6.196862928161459 ], [ 106.866803044339889, -6.196862788666661 ], [ 106.866819459086969, -6.196855584440561 ], [ 106.866914717374129, -6.196812002459993 ], [ 106.866948986962115, -6.196796567237967 ], [ 106.866957750097967, -6.196792620492306 ], [ 106.866970790971052, -6.196759352360855 ], [ 106.866982515134367, -6.196742935051086 ], [ 106.867080359396141, -6.196697137810468 ], [ 106.867446630322732, -6.196511644753864 ], [ 106.867339469774578, -6.196287152045489 ], [ 106.867258938500598, -6.196158253856209 ], [ 106.867172293170725, -6.195989906361203 ], [ 106.867179400669386, -6.195971939316526 ], [ 106.867378658691095, -6.195875547492721 ], [ 106.867591045702454, -6.195774325501984 ], [ 106.867813920612292, -6.195596514590742 ], [ 106.867900844212301, -6.195504106880715 ], [ 106.867968237628574, -6.195295744349833 ], [ 106.867994476521702, -6.195280102304842 ], [ 106.868074599677684, -6.195292977303371 ], [ 106.868275014748889, -6.19531967706081 ] ] ] } },
{ "type": "Feature", "properties": { "OBJECTID": 187, "toponimi": "Sal. Phb Galur Sari", "kewenangan": "Pemprov DKI", "jenis": "Saluran Drainase Tersier", "panjang": "576", "lebar": "1.5 - 2", "kedalaman": "1.2", "kota": "Jakarta Timur", "kecamatan": "Matraman", "lebar_min": 1.5, "lebar_max": 2.0, "kedalaman_": 1.2, "kedalaman1": 1.2, "Shape_Leng": 0.60026060905 }, "geometry": { "type": "MultiLineString", "coordinates": [ [ [ 106.86424732062774, -6.198588255737262 ], [ 106.864582834981945, -6.198581968896716 ], [ 106.864621634768469, -6.19858121486691 ], [ 106.864660426178389, -6.198580391243836 ], [ 106.864699201084022, -6.198579498960275 ], [ 106.864737982071347, -6.198578537936781 ], [ 106.864776761009566, -6.198577508201994 ], [ 106.864815537898338, -6.198576409755921 ], [ 106.864854313638261, -6.198575241691108 ], [ 106.86489308642544, -6.198574004918264 ], [ 106.864931857163199, -6.198572699434045 ], [ 106.86497029432644, -6.198571337254866 ], [ 106.86498637587917, -6.198570331308858 ], [ 106.865002771531081, -6.198569239266677 ], [ 106.865019164237424, -6.198568080326968 ], [ 106.865035564836248, -6.198566853547363 ], [ 106.865051932682277, -6.19856556178344 ], [ 106.865068322872631, -6.198564201224784 ], [ 106.865084680310162, -6.1985627756817 ], [ 106.865101077251154, -6.198561279475122 ], [ 106.865117403510453, -6.198559722938432 ], [ 106.865133755721828, -6.198558095785899 ], [ 106.865150101376656, -6.198556402652749 ], [ 106.86515325233357, -6.198556063356937 ], [ 106.865166450406917, -6.198554641695684 ], [ 106.86518277120156, -6.198552815738427 ], [ 106.865199104405704, -6.198550921925399 ], [ 106.865215410277742, -6.19854896310899 ], [ 106.865231724942305, -6.198546935545508 ], [ 106.86524801679515, -6.19854484386683 ], [ 106.865264361687082, -6.198542676956289 ], [ 106.865265244000597, -6.198542574394375 ], [ 106.865285412882187, -6.198540571240454 ], [ 106.86530552913807, -6.198538504076073 ], [ 106.865325637921515, -6.198536367317388 ], [ 106.865345711241446, -6.198534165583638 ], [ 106.865365832176792, -6.198531887732688 ], [ 106.865385917651693, -6.198529545810889 ], [ 106.865405980298746, -6.198527135253055 ], [ 106.865426064377104, -6.198524653190939 ], [ 106.865446124727129, -6.198522103399887 ], [ 106.86546614600644, -6.198519490455095 ], [ 106.865486219411679, -6.198516799568798 ], [ 106.86550625283634, -6.198514043723449 ], [ 106.865526276084381, -6.19851122010158 ], [ 106.865546290055974, -6.198508327796063 ], [ 106.865566294748163, -6.198505365902571 ], [ 106.865586424713356, -6.198502316768766 ], [ 106.865597713042376, -6.198500683918013 ], [ 106.865614824755696, -6.198497944681511 ], [ 106.865640714902185, -6.198493543452656 ], [ 106.865675166540584, -6.198487448444506 ], [ 106.86570090358812, -6.198482672528004 ], [ 106.865723632194786, -6.198478170308702 ], [ 106.865777030629445, -6.198467072826852 ], [ 106.86581211467373, -6.198459434002247 ], [ 106.86583763621222, -6.198453492480096 ], [ 106.865906204776209, -6.198437071273135 ], [ 106.865923609193104, -6.198433044386381 ], [ 106.865949501048732, -6.198427333019197 ], [ 106.866146621854483, -6.19838571524925 ], [ 106.866160801211763, -6.198382793736135 ], [ 106.866161484662285, -6.198382662035954 ], [ 106.866168755601137, -6.198381363388663 ], [ 106.866176135111814, -6.198380109566775 ], [ 106.866183525692477, -6.198378920804992 ], [ 106.866190925533274, -6.198377796205334 ], [ 106.866198335534349, -6.198376734860545 ], [ 106.866205753898313, -6.198375739489473 ], [ 106.866213181519058, -6.198374807376433 ], [ 106.866220615689798, -6.198373939435171 ], [ 106.866228058220045, -6.198373136563448 ], [ 106.866235507303074, -6.198372398767614 ], [ 106.866242866293049, -6.198371732717052 ], [ 106.866256283797455, -6.198370541721612 ], [ 106.866269566488597, -6.198369294238745 ], [ 106.866282917574054, -6.198367970565958 ], [ 106.866296280162715, -6.198366578136643 ], [ 106.866309525100306, -6.198365128255404 ], [ 106.866322771603024, -6.198363609652667 ], [ 106.866336072954766, -6.198362016715944 ], [ 106.866349383993182, -6.198360352316602 ], [ 106.866362644219436, -6.198358625709289 ], [ 106.866375903300451, -6.198356830390076 ], [ 106.866389116086296, -6.198354972846874 ], [ 106.866402390032775, -6.19835303733084 ], [ 106.866415655606346, -6.198351033128376 ], [ 106.866428839669965, -6.198348972250909 ], [ 106.866442047868659, -6.198346838051728 ], [ 106.866455240476597, -6.198344637903898 ], [ 106.866468461730747, -6.198342362610184 ], [ 106.866481671001537, -6.198340019546885 ], [ 106.866494766266669, -6.198337628060345 ], [ 106.866507881153041, -6.198335164172297 ], [ 106.866521083368013, -6.19833261317752 ], [ 106.866534241998011, -6.198329999949544 ], [ 106.866547351632278, -6.198327327219579 ], [ 106.866560348173934, -6.19832460877574 ], [ 106.866573462735644, -6.198321795884084 ], [ 106.866586563503958, -6.198318914325035 ], [ 106.866599583687858, -6.198315982416903 ], [ 106.866612620772685, -6.198312975404112 ], [ 106.866625644070822, -6.198309901532418 ], [ 106.866638266326319, -6.198306853484775 ], [ 106.866642229505402, -6.198305750023347 ], [ 106.866646887933229, -6.1983045301901 ], [ 106.866651564687501, -6.198303383528788 ], [ 106.866656258870961, -6.198302311850756 ], [ 106.866660968673585, -6.198301314258274 ], [ 106.866665754587729, -6.198300379688455 ], [ 106.866668796405008, -6.198299835525844 ], [ 106.866670434239211, -6.19829954314144 ], [ 106.866675186388463, -6.198298769629763 ], [ 106.866679950546242, -6.198298071120515 ], [ 106.866684724908936, -6.198297448524086 ], [ 106.866689508573032, -6.198296901843853 ], [ 106.86669429972855, -6.198296430181925 ], [ 106.866695713219542, -6.198296313089096 ], [ 106.8666988852207, -6.19829605056376 ], [ 106.866699476831329, -6.198296007793322 ], [ 106.866708373944988, -6.198295470134748 ], [ 106.866709748832747, -6.198295422797592 ], [ 106.866719573543762, -6.19829532852389 ], [ 106.866721208927814, -6.198295367068081 ], [ 106.866729878292489, -6.198295834725592 ], [ 106.86673138206973, -6.198295957819493 ], [ 106.866740019704821, -6.198296908406568 ], [ 106.866741389995312, -6.19829709526126 ], [ 106.86675012503234, -6.19829851114407 ], [ 106.866751265043987, -6.198298726838479 ], [ 106.866759804510707, -6.198300535812449 ], [ 106.866760787364996, -6.1983007638144 ], [ 106.866769280990994, -6.198302896636508 ], [ 106.866770244987464, -6.198303157254304 ], [ 106.866786922599829, -6.198308006263332 ], [ 106.866810784265084, -6.198315367929057 ], [ 106.866826166023486, -6.198319616621954 ], [ 106.8668337136871, -6.198321478816001 ], [ 106.866841239948414, -6.198323163871324 ], [ 106.866848415675221, -6.198324593381491 ], [ 106.866855641489124, -6.198325878954788 ], [ 106.866870686633717, -6.19832817857289 ], [ 106.866885866121137, -6.198330144084913 ], [ 106.866901245342703, -6.198331872908903 ], [ 106.86691662907549, -6.198333343128712 ], [ 106.866932070752895, -6.198334591626357 ], [ 106.866963354517168, -6.198336626091822 ], [ 106.866978064280886, -6.198337327440804 ], [ 106.867000400304207, -6.198338091438971 ], [ 106.86701514830564, -6.198338362275263 ], [ 106.867029834141448, -6.198338425374824 ], [ 106.867051962291683, -6.198338139476961 ], [ 106.867073184886237, -6.198337255505944 ], [ 106.867086998581513, -6.198336203238408 ], [ 106.867093560623545, -6.198335509242402 ], [ 106.867107247767848, -6.198333667190328 ], [ 106.86712073899335, -6.198331348435084 ], [ 106.867135556159226, -6.198328166063315 ], [ 106.867138271689996, -6.198327582360537 ], [ 106.867164470932082, -6.198321170946135 ], [ 106.867167820758027, -6.198320350833271 ], [ 106.867183331485876, -6.198316829672238 ], [ 106.867184003149717, -6.198316686258348 ], [ 106.867191691528234, -6.198315145622935 ], [ 106.867192441810602, -6.198315007356973 ], [ 106.867201144304246, -6.198313592442862 ], [ 106.867202241450528, -6.198313436680338 ], [ 106.867211703804287, -6.198312294856205 ], [ 106.867212615054868, -6.198312200326683 ], [ 106.867222711674728, -6.19831132751407 ], [ 106.867223513739219, -6.198311270439488 ], [ 106.867233883302433, -6.198310683281589 ], [ 106.867234650218762, -6.198310650742967 ], [ 106.867244934998155, -6.198310360445828 ], [ 106.867245659529047, -6.198310349756176 ], [ 106.867256026661096, -6.198310355730851 ], [ 106.867256739520414, -6.19831036587787 ], [ 106.867266141732813, -6.198310619372998 ], [ 106.8672668094773, -6.198310645953575 ], [ 106.867274886901939, -6.198311063246365 ], [ 106.867275598078393, -6.198311108661113 ], [ 106.867281933920367, -6.198311603517024 ], [ 106.867283375458555, -6.198311754857309 ], [ 106.867287263917731, -6.198312269184574 ], [ 106.86729181599577, -6.198312664538262 ], [ 106.867295798285312, -6.198313399148292 ], [ 106.867297867024234, -6.198313865636696 ], [ 106.867301691313116, -6.19831488651574 ], [ 106.867303327389649, -6.198315378940467 ], [ 106.867308262452099, -6.198317036046705 ], [ 106.867308821468569, -6.198317230278686 ], [ 106.867309755085103, -6.198317586842655 ], [ 106.867314134897185, -6.198319349882443 ], [ 106.867315469526645, -6.198319929263557 ], [ 106.867320118185077, -6.198322097321152 ], [ 106.867321498384115, -6.198322789560981 ], [ 106.867326531096765, -6.198325496044784 ], [ 106.867327171085478, -6.198325850930621 ], [ 106.867327940632052, -6.198326309337742 ], [ 106.867333024563422, -6.19832945053864 ], [ 106.867334446295217, -6.198330392178346 ], [ 106.867339464828632, -6.19833394771171 ], [ 106.867340871640835, -6.198335014177123 ], [ 106.867345859380521, -6.198339061678141 ], [ 106.867347110899502, -6.198340156719294 ], [ 106.867351687414427, -6.198344417240757 ], [ 106.86735304737465, -6.198345776816703 ], [ 106.867353498999236, -6.198346261660112 ], [ 106.867354602665444, -6.198347445829167 ], [ 106.867357267062431, -6.198350304416278 ], [ 106.86735814780485, -6.198351296786046 ], [ 106.867358583323167, -6.198351825989618 ], [ 106.867362372756673, -6.198356550401889 ], [ 106.867363629104204, -6.198358247591881 ], [ 106.867366926559924, -6.198363086756504 ], [ 106.867368034087633, -6.198364854994751 ], [ 106.867370866824928, -6.198369853119067 ], [ 106.867371944844237, -6.198371965039452 ], [ 106.867374133609843, -6.19837676018965 ], [ 106.86737440607304, -6.198377422878184 ], [ 106.867374917273125, -6.198378663383587 ], [ 106.86737520475738, -6.198379486958327 ], [ 106.867377972479218, -6.198387833390464 ], [ 106.86737847260865, -6.198389522394852 ], [ 106.867380665023404, -6.198397923294506 ], [ 106.867380923597281, -6.198399003750767 ], [ 106.867382784970914, -6.198407554097853 ], [ 106.867382978118741, -6.198408527190272 ], [ 106.867386096489412, -6.19842589402637 ], [ 106.867386223886697, -6.198426667532595 ], [ 106.867386471822499, -6.198428319450959 ], [ 106.867390203013215, -6.198453213914697 ], [ 106.867392951432763, -6.198473794509863 ], [ 106.867396054295469, -6.19849702573705 ], [ 106.867396810872592, -6.198502272584349 ], [ 106.867398466604044, -6.198513745878423 ], [ 106.867399812769619, -6.198521713957496 ], [ 106.86740135596817, -6.198529704850357 ], [ 106.867405006309667, -6.198546254265621 ], [ 106.867409051846451, -6.198562913499255 ], [ 106.867415534855525, -6.198588292838765 ], [ 106.867444549848273, -6.198699160028327 ], [ 106.867455803431113, -6.198741585734107 ], [ 106.867462885444496, -6.198767224261287 ], [ 106.867487612930603, -6.198853765845442 ], [ 106.867489193318079, -6.198859486278042 ], [ 106.867508645549989, -6.198842791268792 ], [ 106.86753248018239, -6.198822430752011 ], [ 106.867556361082464, -6.198802125224963 ], [ 106.867580281945195, -6.198781880134852 ], [ 106.867604262588884, -6.198761679137061 ], [ 106.867628284101798, -6.198741539477018 ], [ 106.867652350979029, -6.198721454809996 ], [ 106.867676464123832, -6.198701425132625 ], [ 106.867700623539378, -6.19868145134912 ], [ 106.867724828322224, -6.198661533462695 ], [ 106.867749079376026, -6.198641671470069 ], [ 106.867773375800439, -6.198621866278631 ], [ 106.8677977175888, -6.198602116080059 ], [ 106.867822104744533, -6.198582421778485 ], [ 106.867846537270964, -6.198562784278062 ], [ 106.867871015167765, -6.198543203578863 ], [ 106.867895537525385, -6.198523677875587 ], [ 106.867920105256786, -6.198504209877628 ], [ 106.867944633664109, -6.198484864078241 ], [ 106.86801364786767, -6.198429524502738 ], [ 106.86804456889611, -6.198404731255289 ], [ 106.868612734314155, -6.197949147844241 ], [ 106.868613310033567, -6.197948697355196 ], [ 106.868688077174625, -6.197891536381079 ], [ 106.868722667125311, -6.197865738323384 ], [ 106.868822409132292, -6.19779930709173 ] ] ] } },
{ "type": "Feature", "properties": { "OBJECTID": 188, "toponimi": "Sal. Phb Asam Gede", "kewenangan": "Pemprov DKI", "jenis": "Saluran Drainase Tersier", "panjang": "562", "lebar": "1.5 - 2.5", "kedalaman": "1 - 1.5", "kota": "Jakarta Timur", "kecamatan": "Matraman", "lebar_min": 1.5, "lebar_max": 2.5, "kedalaman_": 1.0, "kedalaman1": 1.5, "Shape_Leng": 0.58773562466999996 }, "geometry": { "type": "MultiLineString", "coordinates": [ [ [ 106.872986231055663, -6.200970687433197 ], [ 106.872732451562143, -6.200857713994739 ], [ 106.872076580732625, -6.200659607782793 ], [ 106.872075041226552, -6.200659345593441 ], [ 106.872073562315308, -6.200658845398446 ], [ 106.872063549561645, -6.200654554413917 ], [ 106.872053533832982, -6.200650188395183 ], [ 106.872043546794558, -6.200645759888456 ], [ 106.872033587545957, -6.200641269801014 ], [ 106.872023656081012, -6.200636716324634 ], [ 106.872013753309545, -6.200632101264468 ], [ 106.872003879231443, -6.200627424620349 ], [ 106.871994035653543, -6.200622686386074 ], [ 106.871984220769164, -6.200617886567851 ], [ 106.871974437288443, -6.200613025156284 ], [ 106.871964683404684, -6.200608102157676 ], [ 106.87195496093095, -6.200603119373886 ], [ 106.871945268957489, -6.200598074999831 ], [ 106.871935636451951, -6.200592985207892 ], [ 106.8719353033282, -6.200592800129746 ], [ 106.8719286827384, -6.200588934766934 ], [ 106.871922022588521, -6.200585123792837 ], [ 106.871915371770058, -6.200581396871687 ], [ 106.871908722135345, -6.200577749511522 ], [ 106.871901973198675, -6.20057412420147 ], [ 106.871895256217542, -6.200570593714531 ], [ 106.871888474341645, -6.200567106855847 ], [ 106.871881620330853, -6.200563660034513 ], [ 106.871874776541802, -6.200560293646266 ], [ 106.871867903159242, -6.200556989749016 ], [ 106.871861015561066, -6.200553753713142 ], [ 106.871854072127803, -6.200550568506791 ], [ 106.871853591634576, -6.200550353208077 ], [ 106.871847110858681, -6.200547449366357 ], [ 106.871840142610793, -6.200544400774151 ], [ 106.87183532808568, -6.200542345468565 ], [ 106.871833154720079, -6.200541418254367 ], [ 106.871826111898059, -6.200538486560906 ], [ 106.871819043096224, -6.200535617345518 ], [ 106.871811948321152, -6.20053281241643 ], [ 106.871804794091076, -6.200530056521328 ], [ 106.871797681735174, -6.200527389989262 ], [ 106.871790519881273, -6.200524777880769 ], [ 106.871783346525177, -6.200522234528486 ], [ 106.871776125477851, -6.200519745593527 ], [ 106.87176889564499, -6.200517327213143 ], [ 106.871761637118695, -6.200514970416401 ], [ 106.871754371607352, -6.200512682359609 ], [ 106.871747119915511, -6.200510470202437 ], [ 106.871739800644164, -6.200508308916495 ], [ 106.871732461729977, -6.200506213702719 ], [ 106.871725077841404, -6.200504174705115 ], [ 106.871717702351603, -6.200502211626362 ], [ 106.871710336145043, -6.200500319038461 ], [ 106.871702934924258, -6.200498488960477 ], [ 106.871695517677452, -6.200496725846182 ], [ 106.871688104293227, -6.200495033241888 ], [ 106.871680645947393, -6.200493400470249 ], [ 106.871673174282719, -6.200491833748589 ], [ 106.871665701056713, -6.20049033665199 ], [ 106.871658171124238, -6.20048889942936 ], [ 106.871650667650059, -6.20048753534952 ], [ 106.871649537365144, -6.200487260863494 ], [ 106.871643910003186, -6.200485538441924 ], [ 106.871638359768809, -6.200483910683672 ], [ 106.871632740147945, -6.200482333802914 ], [ 106.871627174133053, -6.200480842627064 ], [ 106.87162157129066, -6.200479412159383 ], [ 106.871615880980443, -6.200478029016367 ], [ 106.871610282242855, -6.200476737773267 ], [ 106.871604561690489, -6.200475489455437 ], [ 106.871598901958976, -6.20047432320045 ], [ 106.871593170146653, -6.200473212353174 ], [ 106.871587499151815, -6.200472182664606 ], [ 106.871581729860409, -6.20047120395563 ], [ 106.871576024093727, -6.200470305491621 ], [ 106.871570333027663, -6.200469476595202 ], [ 106.871564543680933, -6.200468703199085 ], [ 106.871558746442417, -6.200467997642124 ], [ 106.871553016332598, -6.200467369604977 ], [ 106.871547194275834, -6.200466799758165 ], [ 106.871541451986744, -6.200466304674061 ], [ 106.871535627704418, -6.2004658722659 ], [ 106.871529879572662, -6.200465513729127 ], [ 106.871524039506326, -6.200465216999192 ], [ 106.871518281008335, -6.200464993217363 ], [ 106.871512439619877, -6.200464833922909 ], [ 106.871506677079694, -6.200464744873741 ], [ 106.871500834369144, -6.200464723014788 ], [ 106.87149507050016, -6.200464769592795 ], [ 106.871489229174344, -6.200464884255537 ], [ 106.871483390804457, -6.200465068527544 ], [ 106.871477631263389, -6.200465317619882 ], [ 106.871471875572126, -6.200465633605754 ], [ 106.871466047860551, -6.200466022177985 ], [ 106.871460295361004, -6.200466474679278 ], [ 106.871454483489273, -6.200466999722241 ], [ 106.871448665538935, -6.200467594406186 ], [ 106.871442946267877, -6.200468246607285 ], [ 106.871442864993185, -6.200468256839959 ], [ 106.871394056657351, -6.200485632501607 ], [ 106.871393759303771, -6.200485599193973 ], [ 106.871390573611052, -6.200485310266901 ], [ 106.871387418871436, -6.200485088137753 ], [ 106.871384266171347, -6.200484932004308 ], [ 106.871381064908633, -6.20048483933297 ], [ 106.87137795061237, -6.200484813261594 ], [ 106.871374748004868, -6.200484851696824 ], [ 106.871371591702683, -6.20048495506739 ], [ 106.871368437436828, -6.200485123529593 ], [ 106.871365287914571, -6.200485356169722 ], [ 106.871362098883083, -6.200485657664844 ], [ 106.871358959761125, -6.200486021370198 ], [ 106.871355782939858, -6.200486454828218 ], [ 106.87135266504643, -6.200486945943809 ], [ 106.871349594335996, -6.2004874947584 ], [ 106.871346450727373, -6.200488123395782 ], [ 106.871343364230015, -6.200488806984601 ], [ 106.871340251791025, -6.200489563901247 ], [ 106.871337184728333, -6.200490378523292 ], [ 106.871334145879416, -6.200491251815517 ], [ 106.871331112687159, -6.20049219199486 ], [ 106.871328114026582, -6.200493189013822 ], [ 106.871322189618354, -6.200495363624338 ], [ 106.871275299684442, -6.200513871732101 ], [ 106.87103554012316, -6.200591741228958 ], [ 106.87103403398288, -6.200592230268252 ], [ 106.871033153083417, -6.200592477499612 ], [ 106.871028494253721, -6.200593582548456 ], [ 106.871024015314305, -6.200594716799244 ], [ 106.871019481564574, -6.200595936233553 ], [ 106.871014983272232, -6.200597218833338 ], [ 106.871013464371956, -6.200597676272269 ], [ 106.871010543897924, -6.200598556378224 ], [ 106.871006068682334, -6.200599978135608 ], [ 106.871001668618334, -6.200601446643542 ], [ 106.870997258890554, -6.20060299294261 ], [ 106.870992833184431, -6.200604619767506 ], [ 106.87098852413078, -6.200606276921537 ], [ 106.87098416842008, -6.200608025559641 ], [ 106.870979819297887, -6.200609849218907 ], [ 106.870975567865472, -6.200611705986907 ], [ 106.870971295053337, -6.200613648724709 ], [ 106.870967101887388, -6.200615631867989 ], [ 106.87096288824506, -6.200617700977967 ], [ 106.870958755139853, -6.200619806873681 ], [ 106.870954583537213, -6.200622012361973 ], [ 106.87095051501305, -6.200624241898447 ], [ 106.870946434143576, -6.200626557372677 ], [ 106.870942452732194, -6.200628895099645 ], [ 106.870938443655319, -6.200631329668378 ], [ 106.870934488960245, -6.200633813773424 ], [ 106.870930527343489, -6.200636384701411 ], [ 106.870926675087972, -6.200638967901359 ], [ 106.870922820421711, -6.200641636099937 ], [ 106.870919018327328, -6.200644352937125 ], [ 106.870915285918983, -6.200647103885927 ], [ 106.870911528590327, -6.200649961612586 ], [ 106.870907888702902, -6.200652817116241 ], [ 106.870904215786453, -6.200655785755383 ], [ 106.870900662105313, -6.200658748548656 ], [ 106.87089710964311, -6.200661800848529 ], [ 106.870893608839708, -6.200664899077712 ], [ 106.870890155200115, -6.200668049581099 ], [ 106.870886748721219, -6.200671251454572 ], [ 106.870883389402962, -6.200674504698187 ], [ 106.870880079045975, -6.200677807497249 ], [ 106.87087687705737, -6.200681097255485 ], [ 106.870873638518745, -6.200684526382092 ], [ 106.87084734491485, -6.200713121685263 ], [ 106.870836031524846, -6.200726864947561 ], [ 106.870835344097983, -6.200727918902682 ], [ 106.870835333187884, -6.200727643175016 ], [ 106.870835253745369, -6.200729454470515 ], [ 106.870834872203957, -6.200731424154996 ], [ 106.870834204894052, -6.200733315283085 ], [ 106.870749535244997, -6.200926372055319 ], [ 106.870712540542584, -6.200943274681221 ], [ 106.870708045133796, -6.200943069940359 ], [ 106.870685527719658, -6.20094187097239 ], [ 106.870650508686879, -6.200939756837359 ], [ 106.87063081078557, -6.200938509938102 ], [ 106.870510209716443, -6.200930877916858 ], [ 106.870466442346128, -6.200927942942971 ], [ 106.870449166295288, -6.200926607921605 ], [ 106.870422318764923, -6.200924168361983 ], [ 106.870287923119903, -6.200910464783266 ], [ 106.870253475274581, -6.200907128000064 ], [ 106.870230346433942, -6.200902914016465 ], [ 106.870228903347055, -6.200904888352282 ], [ 106.870197993018408, -6.200902203629922 ], [ 106.870067655496584, -6.200891265934198 ], [ 106.870068903483656, -6.200896995659219 ], [ 106.870069606514761, -6.200898574539118 ], [ 106.870070070433087, -6.200900239253222 ], [ 106.870073838920476, -6.200919004277679 ], [ 106.870159993806226, -6.201348019391488 ], [ 106.870164451074572, -6.201370212333008 ], [ 106.870206627416707, -6.201580234385771 ], [ 106.870217900751456, -6.201633295409755 ], [ 106.870118533927823, -6.201654514001508 ], [ 106.870014109735806, -6.201676812806882 ], [ 106.869779266740707, -6.20172696047339 ], [ 106.86973496155845, -6.201735769574811 ], [ 106.869683097163033, -6.201745607151381 ], [ 106.869511871123507, -6.201777592723561 ], [ 106.869466465267109, -6.201786074769633 ], [ 106.869441027114448, -6.201790826343576 ], [ 106.869240892557912, -6.201829065699124 ], [ 106.869213723970688, -6.20183424289552 ], [ 106.869186604356415, -6.201839473263048 ], [ 106.869159496702665, -6.201844765069417 ], [ 106.869132401009182, -6.201850118314728 ], [ 106.869105324500708, -6.201855532069212 ], [ 106.869078246404129, -6.201861008214703 ], [ 106.869061632343374, -6.201864744922148 ], [ 106.868943360065629, -6.2018871150029 ] ] ] } },
{ "type": "Feature", "properties": { "OBJECTID": 189, "toponimi": "Sal. Phb Ahmad Yani (Kec. Matraman)", "kewenangan": "Pemprov DKI", "jenis": "Saluran Drainase Tersier", "panjang": "2375", "lebar": "1.5 - 2", "kedalaman": "2 - 2.5", "kota": "Jakarta Timur", "kecamatan": "Matraman", "lebar_min": 1.5, "lebar_max": 2.0, "kedalaman_": 2.0, "kedalaman1": 2.5, "Shape_Leng": 2.1887229996 }, "geometry": { "type": "MultiLineString", "coordinates": [ [ [ 106.873681921130441, -6.211196665692022 ], [ 106.87364716115637, -6.210865824798909 ], [ 106.873644418599739, -6.210360594641277 ], [ 106.873664495048033, -6.209818921538527 ], [ 106.873662229496915, -6.209516072245887 ], [ 106.873652936425316, -6.209254156406156 ], [ 106.873628172567862, -6.20867293093184 ], [ 106.873611137815089, -6.208249566083749 ], [ 106.873584031151452, -6.207681505707495 ], [ 106.873573448997476, -6.207054778543588 ], [ 106.873548732750663, -6.206486710627606 ], [ 106.873533215252422, -6.206154244076541 ], [ 106.873556759197669, -6.20571399049707 ], [ 106.873527731037626, -6.205278706384443 ], [ 106.873499684736217, -6.205120918350008 ], [ 106.873454731242703, -6.204914149010173 ], [ 106.873404866659612, -6.204670316994034 ], [ 106.873270759865775, -6.204262915838444 ], [ 106.873138866520833, -6.203805269334636 ], [ 106.872985645374428, -6.203061825894425 ], [ 106.872933969787695, -6.202643367455866 ], [ 106.872928020245482, -6.201973562131012 ], [ 106.872950264328551, -6.201503409928404 ], [ 106.872986231075956, -6.200970687785307 ], [ 106.873109298473224, -6.200268048751653 ], [ 106.873206108114786, -6.199928966054009 ], [ 106.873386356873198, -6.199526432886849 ], [ 106.87354207713274, -6.198946961377176 ], [ 106.873673538388076, -6.198267102602285 ], [ 106.873846912339516, -6.197271320187918 ], [ 106.874034856066586, -6.196340076971812 ], [ 106.874208701633648, -6.195478257488364 ], [ 106.87427928046894, -6.195157448374004 ], [ 106.874235418428711, -6.194920772479365 ], [ 106.874324740612181, -6.194542922632902 ], [ 106.874422509654465, -6.194069871151383 ], [ 106.874414449071381, -6.193953158363191 ], [ 106.874381534799369, -6.193838447815404 ], [ 106.874318093079253, -6.193742982935838 ], [ 106.874114752228081, -6.19356189120515 ], [ 106.873846056245029, -6.193285341594639 ], [ 106.873665230768282, -6.192981687971024 ], [ 106.873278370392853, -6.192274952486055 ] ] ] } },
{ "type": "Feature", "properties": { "OBJECTID": 190, "toponimi": "Sal. Phb Kelapa Hijau", "kewenangan": "Pemprov DKI", "jenis": "Saluran Drainase Tersier", "panjang": "718", "lebar": "2 - 2.5", "kedalaman": "1.2", "kota": "Jakarta Timur", "kecamatan": "Matraman", "lebar_min": 2.0, "lebar_max": 2.5, "kedalaman_": 1.2, "kedalaman1": 1.2, "Shape_Leng": 0.76962970181000001 }, "geometry": { "type": "MultiLineString", "coordinates": [ [ [ 106.863927847923023, -6.202867220957873 ], [ 106.864875959518301, -6.20276072935961 ], [ 106.865130677715356, -6.202739922932817 ], [ 106.865206844969975, -6.202719494268073 ], [ 106.865282633135564, -6.202697694760873 ], [ 106.865358015262672, -6.202674531555574 ], [ 106.865432679635788, -6.2026438059466 ], [ 106.865504067853053, -6.202606078772267 ], [ 106.865547867909726, -6.202553772445068 ], [ 106.865555950052283, -6.202473205330477 ], [ 106.865564032194968, -6.202392638203522 ], [ 106.865572114337553, -6.202312070171301 ], [ 106.86557718263245, -6.202223419065721 ], [ 106.865582250927233, -6.202134767945207 ], [ 106.865546274298381, -6.202100446855482 ], [ 106.865500171859708, -6.202083245675681 ], [ 106.865478647327222, -6.202038966991068 ], [ 106.865483747961406, -6.201960003729409 ], [ 106.865488848595589, -6.201881040455917 ], [ 106.865495059547456, -6.201811764170186 ], [ 106.865501269600998, -6.201742487875302 ], [ 106.865514414648587, -6.201673784021624 ], [ 106.865527558797751, -6.201605079265931 ], [ 106.865540703845312, -6.201536375394287 ], [ 106.865547702619708, -6.201487190200443 ], [ 106.865553940521039, -6.201443351743547 ] ], [ [ 106.865553940521039, -6.201443351743547 ], [ 106.86557042909817, -6.201443499098276 ], [ 106.865587918398361, -6.201443394610459 ], [ 106.86565699075885, -6.201442129146439 ], [ 106.86569315783052, -6.201441053010879 ], [ 106.865698600722837, -6.201440891367232 ], [ 106.865720313901548, -6.201439899179216 ], [ 106.865738928790833, -6.201439048987393 ], [ 106.865828092870956, -6.20143447652756 ], [ 106.866087291864801, -6.201420650194465 ], [ 106.866135969773453, -6.201417912969854 ], [ 106.866192486381152, -6.201414060315056 ], [ 106.866418814222072, -6.201397428884254 ], [ 106.866444925552386, -6.201395665986473 ], [ 106.866462159731256, -6.201394674691366 ], [ 106.866481719648164, -6.201393825392584 ], [ 106.866516275142217, -6.201392735861099 ], [ 106.866798133240692, -6.201385262746249 ], [ 106.866825493229328, -6.201384225012108 ], [ 106.866852735538643, -6.20138262375794 ], [ 106.866897423130737, -6.201379140829101 ], [ 106.867030796000975, -6.201368008852682 ], [ 106.867057765222398, -6.201365542224532 ], [ 106.867084586221907, -6.201362576376654 ], [ 106.867085184499814, -6.201362502252796 ], [ 106.86711184290418, -6.201358894295617 ], [ 106.86713852286816, -6.201354997880451 ], [ 106.867162427936222, -6.20135140331916 ], [ 106.867211487628779, -6.201342629910223 ], [ 106.867248565592107, -6.201335998949141 ], [ 106.867387182827059, -6.201307700595987 ], [ 106.86742746867418, -6.201300314999684 ], [ 106.867442288181465, -6.2012975983148 ], [ 106.867457096010654, -6.201294818222761 ], [ 106.867471893060042, -6.201291974723473 ], [ 106.867486675736345, -6.20128906781705 ], [ 106.867501447632861, -6.201286098396399 ], [ 106.86751620605466, -6.201283065568673 ], [ 106.867530951001783, -6.201279969333637 ], [ 106.867545683372384, -6.201276809691496 ], [ 106.867560401370042, -6.201273587535205 ], [ 106.867575105892854, -6.201270302864684 ], [ 106.86760077615051, -6.201264582822697 ], [ 106.867649865487437, -6.201253691969726 ], [ 106.867659420867085, -6.201251571847977 ], [ 106.867668125542309, -6.201249661595011 ], [ 106.867676841895474, -6.20124780313941 ], [ 106.867685569028438, -6.201245998267446 ], [ 106.867694307839457, -6.201244246085825 ], [ 106.867703056532022, -6.20124254659475 ], [ 106.867711815106105, -6.201240899794173 ], [ 106.867720582663239, -6.201239306577092 ], [ 106.867729783208375, -6.201237447228404 ], [ 106.867738997228329, -6.20123565039386 ], [ 106.867748221129659, -6.201233915180445 ], [ 106.867757931917737, -6.201232157640456 ], [ 106.86776058464288, -6.201231696822064 ], [ 106.867760899053238, -6.20123164234547 ], [ 106.868398679548733, -6.201274846748123 ], [ 106.868452323344215, -6.201284411408289 ], [ 106.868511134249246, -6.201292173875621 ], [ 106.868575286536966, -6.201298157369632 ], [ 106.868645122465495, -6.201302394040625 ], [ 106.868801625157673, -6.20130576176537 ], [ 106.868999895018931, -6.201302698573675 ] ], [ [ 106.865553940521039, -6.201443351743547 ], [ 106.865554701394089, -6.201438005001961 ], [ 106.865555058923633, -6.201431750019745 ], [ 106.865559092359206, -6.20136119838708 ], [ 106.865563483324351, -6.201284392654091 ], [ 106.865591644610177, -6.201237644594452 ], [ 106.865619806794356, -6.201190896530671 ], [ 106.865648935565773, -6.201112568107074 ], [ 106.86569604591412, -6.201050680892442 ], [ 106.865694015721573, -6.200972972231171 ], [ 106.865693052052805, -6.200887300224947 ] ] ] } },
{ "type": "Feature", "properties": { "OBJECTID": 191, "toponimi": "Sal. Phb Kayu Manis Timur", "kewenangan": "Pemprov DKI", "jenis": "Saluran Drainase Tersier", "panjang": "1187", "lebar": "2", "kedalaman": "1 - 1.5", "kota": "Jakarta Timur", "kecamatan": "Matraman", "lebar_min": 2.0, "lebar_max": 2.0, "kedalaman_": 1.0, "kedalaman1": 1.5, "Shape_Leng": 0.26755476131 }, "geometry": { "type": "MultiLineString", "coordinates": [ [ [ 106.863165840702351, -6.200781291139335 ], [ 106.863244540262514, -6.200760768555067 ], [ 106.863326336741878, -6.20074355512743 ], [ 106.863408134115843, -6.200726341685574 ], [ 106.863489930577472, -6.200709128235891 ], [ 106.863570728754382, -6.200695529480948 ], [ 106.863651665431604, -6.200682781941675 ], [ 106.863725858086099, -6.200678865484958 ], [ 106.863800106422104, -6.200681543727535 ], [ 106.863876116890964, -6.200679960808516 ], [ 106.863952126449433, -6.200678376977673 ], [ 106.864028136910818, -6.200676794037122 ], [ 106.864104147368323, -6.200675211085725 ], [ 106.86418015691558, -6.200673627222606 ], [ 106.864256167365866, -6.200672044249709 ], [ 106.864338201793771, -6.20067064079273 ], [ 106.864420236214272, -6.200669236419145 ], [ 106.86450227063375, -6.200667832937056 ], [ 106.864584305048965, -6.200666429442388 ], [ 106.864666339456804, -6.200665025031015 ], [ 106.864730257020497, -6.200663931199499 ], [ 106.864748373863591, -6.200663621511204 ], [ 106.864771103485708, -6.200663234105817 ], [ 106.864802112445858, -6.200662862768962 ], [ 106.864812221397699, -6.200663168057565 ], [ 106.864815213594198, -6.200685006415685 ], [ 106.864819057987717, -6.200710768516534 ], [ 106.864823184995515, -6.200736482606569 ], [ 106.864826191812028, -6.200752968319327 ], [ 106.86482775946547, -6.20076046818679 ], [ 106.864830598367419, -6.200772105510986 ], [ 106.864832253682053, -6.200777813036097 ], [ 106.864834397296022, -6.200784414859457 ], [ 106.864836968606554, -6.20079163361908 ], [ 106.864839844615631, -6.200799175897659 ], [ 106.864846215543508, -6.20081478630255 ], [ 106.86485053104451, -6.20082472314005 ], [ 106.864853312202882, -6.200832011684897 ], [ 106.864856838454628, -6.200838969399336 ], [ 106.864863920529885, -6.200849216569925 ], [ 106.864872606116947, -6.200858142552068 ], [ 106.864882653124937, -6.200865500459595 ], [ 106.864893781661095, -6.200871084226077 ], [ 106.864905684007269, -6.200874739420079 ], [ 106.864918027332592, -6.200876364139552 ], [ 106.864927616054288, -6.20087620019146 ], [ 106.864937104692459, -6.200874807849782 ], [ 106.865251845892459, -6.200849141304658 ], [ 106.865300938335793, -6.200845137578747 ], [ 106.865366829422285, -6.200903264230142 ], [ 106.865382661587972, -6.200901973416786 ] ] ] } },
{ "type": "Feature", "properties": { "OBJECTID": 192, "toponimi": "Sal. Phb Galur Sari 10", "kewenangan": "Pemprov DKI", "jenis": "Saluran Drainase Tersier", "panjang": "505", "lebar": "0.8 - 1", "kedalaman": "1 - 1.5", "kota": "Jakarta Timur", "kecamatan": "Matraman", "lebar_min": 0.8, "lebar_max": 1.0, "kedalaman_": 1.0, "kedalaman1": 1.5, "Shape_Leng": 0.2556433192 }, "geometry": { "type": "MultiLineString", "coordinates": [ [ [ 106.865382661584832, -6.200901972512629 ], [ 106.865499792864057, -6.200892420935248 ], [ 106.865585813380719, -6.200890778106964 ], [ 106.865630115626431, -6.200889584147787 ], [ 106.865654979119626, -6.200888913421293 ], [ 106.865664480267341, -6.200888511071529 ], [ 106.865683695743968, -6.200887696579445 ], [ 106.866019182488131, -6.200873484496527 ], [ 106.86648497362134, -6.20085176984473 ], [ 106.866899694315094, -6.200830655172296 ], [ 106.867124025865877, -6.20081748051645 ], [ 106.867127860245716, -6.200817255432768 ], [ 106.867129200506511, -6.200817122320085 ], [ 106.867130545523068, -6.200817057002142 ], [ 106.867130742429623, -6.200817043650093 ], [ 106.867134572970045, -6.200817267943962 ], [ 106.867138331371535, -6.200818044929568 ], [ 106.867141937170402, -6.200819358615768 ], [ 106.86714197517864, -6.200819376564862 ], [ 106.867142519943471, -6.20081962780806 ], [ 106.867142845756263, -6.20081978940748 ], [ 106.867143096439932, -6.200819910584762 ], [ 106.867143677530152, -6.200820215044995 ], [ 106.86714370108335, -6.200820233044979 ], [ 106.867144251443804, -6.200820533996896 ], [ 106.86714454115679, -6.20082070657338 ], [ 106.867144811840532, -6.20082086294216 ], [ 106.867145364157153, -6.200821206382306 ], [ 106.867145920160851, -6.200821570604947 ], [ 106.867146118514867, -6.20082171185813 ], [ 106.867146466277489, -6.200821949328984 ], [ 106.867146865743436, -6.200822245387744 ], [ 106.867147000690707, -6.200822339848236 ], [ 106.867147525213838, -6.200822743964647 ], [ 106.867148042563414, -6.200823163476862 ], [ 106.867148240121992, -6.200823335473954 ], [ 106.867148428598483, -6.200823493940728 ], [ 106.867148549116266, -6.200823595685364 ], [ 106.867149048498689, -6.200824044193826 ], [ 106.867149140974604, -6.200824136091561 ], [ 106.867149535274351, -6.200824504500718 ], [ 106.867149831750623, -6.200824801826455 ], [ 106.867150006719925, -6.200824972998963 ], [ 106.867150466459108, -6.200825452388328 ], [ 106.867150912687734, -6.200825943579325 ], [ 106.867151345399861, -6.20082644476362 ], [ 106.867151366261879, -6.20082646819808 ], [ 106.867151779104447, -6.200826971260678 ], [ 106.867152178430473, -6.200827484316677 ], [ 106.867152204754433, -6.200827519485758 ], [ 106.867152339106923, -6.200827701651318 ], [ 106.867152587834255, -6.200828037119815 ], [ 106.867152957394183, -6.20082856384288 ], [ 106.867152980098041, -6.200828597216548 ], [ 106.867153337951393, -6.200829134830735 ], [ 106.867153427911077, -6.200829281890736 ], [ 106.867153606885452, -6.200829564259942 ], [ 106.867153681381566, -6.200829681537313 ], [ 106.86715370500788, -6.200829720332676 ], [ 106.867153875873584, -6.200830009059534 ], [ 106.867154034005097, -6.200830273419158 ], [ 106.867154348575781, -6.200830834693895 ], [ 106.867154375860437, -6.200830886134419 ], [ 106.86715467327214, -6.200831449277908 ], [ 106.867154786110518, -6.200831679439264 ], [ 106.867154956254083, -6.200832019705427 ], [ 106.867154968997795, -6.20083204678515 ], [ 106.867155243918688, -6.200832637132509 ], [ 106.867155504406796, -6.20083323385979 ], [ 106.867155521721727, -6.200833276293999 ], [ 106.867155763237463, -6.200833873088136 ], [ 106.86715599031416, -6.200834474453898 ], [ 106.867156001263567, -6.200834505156518 ], [ 106.867156214829961, -6.20083511832379 ], [ 106.867156236782861, -6.200835195099499 ], [ 106.867156413056577, -6.200835736970216 ], [ 106.867156425857573, -6.200835780324449 ], [ 106.867156515533878, -6.200836103695258 ], [ 106.867156539313029, -6.200836185889373 ], [ 106.867156606915572, -6.200836398127155 ], [ 106.867156772630992, -6.200837020504686 ], [ 106.867157408036405, -6.200840436868504 ], [ 106.867158106113749, -6.200845488624459 ], [ 106.86715841666684, -6.200847732542308 ], [ 106.867158736499533, -6.200850046047176 ], [ 106.867213479105061, -6.201246071099095 ], [ 106.867217810321179, -6.201277406438431 ], [ 106.867219282707751, -6.201288375859387 ], [ 106.867219308688249, -6.201288570160709 ], [ 106.867225692214348, -6.201340089813092 ] ] ] } },
{ "type": "Feature", "properties": { "OBJECTID": 193, "toponimi": "Sal. Phb Pasar Jangkrik", "kewenangan": "Pemprov DKI", "jenis": "Saluran Drainase Tersier", "panjang": "256", "lebar": "1.5 - 2", "kedalaman": "2 - 2.2", "kota": "Jakarta Timur", "kecamatan": "Matraman", "lebar_min": 1.5, "lebar_max": 2.0, "kedalaman_": 2.0, "kedalaman1": 2.2, "Shape_Leng": 0.25562038393999997 }, "geometry": { "type": "MultiLineString", "coordinates": [ [ [ 106.866942721133952, -6.211375415679615 ], [ 106.866893384302983, -6.211182391313193 ], [ 106.86689084705138, -6.211179999741672 ], [ 106.866882875417232, -6.211172484527208 ], [ 106.866866123439294, -6.211156912652028 ], [ 106.866865004889391, -6.211155873207021 ], [ 106.866861269703861, -6.211151194739412 ], [ 106.866851634093535, -6.211139127561705 ], [ 106.866846858610643, -6.21113177195168 ], [ 106.866842120367366, -6.211124472267721 ], [ 106.866838980355411, -6.211118194061032 ], [ 106.866836762063528, -6.211113760690271 ], [ 106.866828527867128, -6.211093011409872 ], [ 106.866822468924468, -6.211072429858255 ], [ 106.866820659447924, -6.211065815131708 ], [ 106.866811031310448, -6.211032535592942 ], [ 106.866794108223715, -6.210974042366161 ], [ 106.866766991935407, -6.210870872029114 ], [ 106.866763461154406, -6.210857793257035 ], [ 106.866759984533715, -6.210844700731585 ], [ 106.866756564777106, -6.210831592634683 ], [ 106.866753199180962, -6.210818470784363 ], [ 106.866749889548544, -6.210805334269992 ], [ 106.866746635883288, -6.210792183995764 ], [ 106.866743437281798, -6.210779019964902 ], [ 106.866741506040341, -6.210770923760248 ], [ 106.866740294650569, -6.210765843078309 ], [ 106.866737207986418, -6.210752652431714 ], [ 106.866735235256698, -6.210744063610065 ], [ 106.86673416538504, -6.210739402859784 ], [ 106.866731178750996, -6.210726139527974 ], [ 106.866728248090197, -6.210712864244583 ], [ 106.866725374306455, -6.210699577006474 ], [ 106.866722557396443, -6.210686276909427 ], [ 106.866719796463158, -6.210672965764977 ], [ 106.866717091503361, -6.210659642668936 ], [ 106.866714443423504, -6.210646308522296 ], [ 106.866711852220746, -6.210632962420947 ], [ 106.866688412288738, -6.210503399526794 ], [ 106.866686737555881, -6.210495023937161 ], [ 106.866685316085082, -6.210488012724865 ], [ 106.866684453644098, -6.210483759919518 ], [ 106.866682135423204, -6.210472502352036 ], [ 106.866679159869562, -6.210458279673456 ], [ 106.866678888860108, -6.210457006678023 ], [ 106.866676543524207, -6.210446002368945 ], [ 106.866673886555105, -6.210433734249263 ], [ 106.866671188962414, -6.210421475314314 ], [ 106.866668040489628, -6.210407407855801 ], [ 106.866664839657844, -6.210393352335939 ], [ 106.86666158466312, -6.210379309665244 ], [ 106.866658276409169, -6.210365279840495 ], [ 106.866654913989123, -6.210351261960803 ], [ 106.866651499213191, -6.210337256923808 ], [ 106.866647267677351, -6.210319912114629 ], [ 106.866642984689364, -6.2103025801451 ], [ 106.866638648441992, -6.210285261021343 ], [ 106.866634259839032, -6.210267954740384 ], [ 106.866629819786965, -6.210250662203076 ], [ 106.866625327382394, -6.210233383412683 ], [ 106.866620623295262, -6.210215514957024 ], [ 106.866615863244945, -6.210197661165057 ], [ 106.866613359576291, -6.210188387058422 ], [ 106.866611048138211, -6.210179822937865 ], [ 106.866606177068221, -6.210161999374341 ], [ 106.866605788090354, -6.210160579417995 ], [ 106.86660045209166, -6.210141318987043 ], [ 106.866598855492001, -6.210135630263673 ], [ 106.866595051104881, -6.21012207596411 ], [ 106.866589585133099, -6.210102851253361 ], [ 106.866584054179853, -6.210083645758815 ], [ 106.866578458241435, -6.210064458576499 ], [ 106.866572797321396, -6.210045290610412 ], [ 106.866567072326347, -6.210026142761606 ], [ 106.866561282346382, -6.210007013224883 ], [ 106.866556203286748, -6.209990416425258 ], [ 106.866551076398338, -6.209973835164879 ], [ 106.866545899871042, -6.209957268545925 ], [ 106.86647650325861, -6.209732063671168 ], [ 106.866391125370242, -6.209405574027335 ], [ 106.866382102858807, -6.209371072622989 ], [ 106.866379829146197, -6.209362955921812 ], [ 106.866365798899238, -6.209312863782245 ], [ 106.866356520132825, -6.209279737593212 ], [ 106.866333157157612, -6.209196329579337 ], [ 106.866332186369263, -6.209192863767168 ], [ 106.866330137737663, -6.209185549159568 ] ] ] } },
{ "type": "Feature", "properties": { "OBJECTID": 221, "toponimi": "Sal. Phb Aramco Jatinegara Barat", "kewenangan": "Pemprov DKI", "jenis": "Saluran Drainase Tersier", "panjang": "3544", "lebar": "1", "kedalaman": "1-2", "kota": "Jakarta Timur", "kecamatan": "Jatinegara", "lebar_min": 1.0, "lebar_max": 1.0, "kedalaman_": 1.0, "kedalaman1": 2.0, "Shape_Leng": 3.9322805320200001 }, "geometry": { "type": "MultiLineString", "coordinates": [ [ [ 106.86055407305814, -6.212124708819263 ], [ 106.860541612526859, -6.212100546716151 ], [ 106.860441097334771, -6.211892404833516 ], [ 106.860378802763051, -6.211754259433345 ], [ 106.860346079832297, -6.211681694482061 ], [ 106.860256623799657, -6.211468558545319 ], [ 106.860246244664864, -6.211442773755528 ], [ 106.860042706184373, -6.210937118170217 ], [ 106.860037491302847, -6.21092416225246 ] ] ] } },
{ "type": "Feature", "properties": { "OBJECTID": 1136, "toponimi": "Sal. Phb Kayu Manis Timur", "kewenangan": "Pemprov DKI", "jenis": "Saluran Drainase Tersier", "panjang": "1187", "lebar": "2", "kedalaman": "1 - 1.5", "kota": "Jakarta Timur", "kecamatan": "Matraman", "lebar_min": 2.0, "lebar_max": 2.0, "kedalaman_": 1.0, "kedalaman1": 1.5, "Shape_Leng": 0.96938801935999996 }, "geometry": { "type": "MultiLineString", "coordinates": [ [ [ 106.860718894056632, -6.194826727549255 ], [ 106.860723337229103, -6.194838078112637 ], [ 106.86074637353471, -6.194896924788668 ], [ 106.860843065492801, -6.195172685991094 ], [ 106.860860227242512, -6.195221630149226 ], [ 106.860954864258218, -6.195491530529035 ], [ 106.861091669068003, -6.19581918323149 ], [ 106.861102397244721, -6.195844878772063 ], [ 106.861271693009257, -6.196250351075452 ], [ 106.861364220890209, -6.196486714466232 ], [ 106.86138554810708, -6.196541194569622 ], [ 106.86140041380412, -6.196579168476723 ], [ 106.861424331837668, -6.196640266041022 ], [ 106.861619057586083, -6.197137691873079 ], [ 106.861637509635727, -6.197184828544888 ], [ 106.86164193736235, -6.197196139359323 ], [ 106.86194352735393, -6.197933549533809 ], [ 106.862001270790174, -6.198074737689548 ], [ 106.862011600014853, -6.198099991548318 ], [ 106.862153512940154, -6.198446979064375 ], [ 106.862164373464779, -6.198473534841521 ], [ 106.862169668855529, -6.19848648183056 ], [ 106.862182738074779, -6.198517085889694 ], [ 106.862195959154718, -6.19854822738706 ], [ 106.862209113483232, -6.198579398051144 ], [ 106.862222201054053, -6.198610596073578 ], [ 106.862235221870364, -6.198641822358603 ], [ 106.862248176835749, -6.198673076903012 ], [ 106.86226106413973, -6.198704358808973 ], [ 106.862273884682864, -6.198735667169239 ], [ 106.862286638468234, -6.198767002888018 ], [ 106.86229932549908, -6.198798366869268 ], [ 106.862311945772205, -6.198829758209013 ], [ 106.862324498381028, -6.198861176006303 ], [ 106.862336984228804, -6.198892620257803 ], [ 106.862349402415433, -6.198924091871027 ], [ 106.862361753841014, -6.19895558993868 ], [ 106.862368067113849, -6.198971791922799 ], [ 106.862374036695684, -6.198987113562755 ], [ 106.862384754827772, -6.19901479188577 ], [ 106.862386253692748, -6.199018663638085 ], [ 106.862398403022411, -6.199050239266745 ], [ 106.862410483787144, -6.199081842260291 ], [ 106.862422498684907, -6.199113468992616 ], [ 106.862434445017925, -6.19914512308979 ], [ 106.862446325506156, -6.199176807254658 ], [ 106.862473477234587, -6.199249724207422 ], [ 106.862479489180146, -6.199267847673224 ], [ 106.862485164375684, -6.199284751712493 ], [ 106.862490901833326, -6.199301633832946 ], [ 106.862496701556211, -6.199318494938794 ], [ 106.862502561734317, -6.199335334132321 ], [ 106.862508485071501, -6.199352149595613 ], [ 106.862514471590188, -6.199368947657784 ], [ 106.86252051855773, -6.199385721999203 ], [ 106.8625266268742, -6.199402471712704 ], [ 106.862532797459309, -6.199419201315631 ], [ 106.862539028493373, -6.199435907197968 ], [ 106.862545294425644, -6.199452517117001 ], [ 106.862553249727839, -6.199473219635284 ], [ 106.862561302828126, -6.199493986004688 ], [ 106.862569422698556, -6.199514727726844 ], [ 106.862577605728632, -6.199535445718691 ], [ 106.862585852805552, -6.199556135456319 ], [ 106.862594164845746, -6.199576800553 ], [ 106.862602540939548, -6.199597439203758 ], [ 106.862610981996525, -6.199618053213609 ], [ 106.862619485300087, -6.19963864078384 ], [ 106.862628053551148, -6.199659199192595 ], [ 106.862636685861858, -6.199679732963524 ], [ 106.862645382222922, -6.199700239384373 ], [ 106.862654141727717, -6.199720717554056 ], [ 106.862662965285907, -6.199741169277763 ], [ 106.86267185199425, -6.199761594558695 ], [ 106.86268080274337, -6.199781989776868 ], [ 106.86268981573906, -6.199802358555517 ], [ 106.862698892778809, -6.199822698175691 ], [ 106.862708032965386, -6.199843010448828 ], [ 106.862717237195966, -6.199863293563565 ], [ 106.862726503666863, -6.199883548430237 ], [ 106.862735832371612, -6.199903773240623 ], [ 106.862745225123561, -6.199923969796817 ], [ 106.862754680109504, -6.199944136296614 ], [ 106.862764198235951, -6.199964273641061 ], [ 106.862773778599603, -6.199984381833494 ], [ 106.862783421197037, -6.200004459969549 ], [ 106.862793126025437, -6.200024507145193 ], [ 106.862802893988018, -6.200044523357181 ], [ 106.862812724190889, -6.200064511321161 ], [ 106.862822614811336, -6.200084466522702 ], [ 106.862832568569132, -6.200104391664812 ], [ 106.862843043099858, -6.200125197431367 ], [ 106.862854969744888, -6.20015070964599 ], [ 106.862866535332472, -6.200175284616005 ], [ 106.862878163164083, -6.20019983224198 ], [ 106.862889853226974, -6.200224348907305 ], [ 106.862901605524016, -6.200248835516118 ], [ 106.862913420962229, -6.200273292969359 ], [ 106.862925296824812, -6.200297719468236 ], [ 106.862937235822002, -6.200322115003416 ], [ 106.862949237053641, -6.200346480481954 ], [ 106.862961300526138, -6.20037081771227 ], [ 106.862973424413454, -6.200395121275784 ], [ 106.862985610535247, -6.200419394782793 ], [ 106.862996297706175, -6.200440546990409 ], [ 106.86299785888815, -6.200443637328997 ], [ 106.863010167662225, -6.20046784801682 ], [ 106.863019730420362, -6.200486537641261 ], [ 106.863022539568135, -6.200492026836455 ], [ 106.863034971901328, -6.200516175605979 ], [ 106.863047465559163, -6.200540292513795 ], [ 106.86306002144525, -6.200564377556664 ], [ 106.863072637749269, -6.200588429836962 ], [ 106.863085956586943, -6.200613666802127 ], [ 106.863225109662864, -6.200905658118781 ], [ 106.863243776054091, -6.200947352688353 ], [ 106.863281393858671, -6.20103137644146 ], [ 106.863292852855196, -6.201056971651678 ], [ 106.863320564266758, -6.201118872108155 ], [ 106.863505876315642, -6.201608434186121 ], [ 106.863524029006101, -6.201656390002441 ], [ 106.863552825647588, -6.201732466472436 ], [ 106.863561964896491, -6.201760462221789 ], [ 106.863570613493195, -6.201787150480357 ], [ 106.863579220776927, -6.201813908503794 ], [ 106.863635315782304, -6.201990640718875 ], [ 106.863643542473881, -6.202016557405711 ], [ 106.863796677137245, -6.202499019045908 ], [ 106.863869338120367, -6.202702983001414 ], [ 106.86392784781566, -6.202867221154568 ] ] ] } },
{ "type": "Feature", "properties": { "OBJECTID": 1137, "toponimi": "Sal. Phb Galur Sari 10", "kewenangan": "Pemprov DKI", "jenis": "Saluran Drainase Tersier", "panjang": "505", "lebar": "0.8 - 1", "kedalaman": "1 - 1.5", "kota": "Jakarta Timur", "kecamatan": "Matraman", "lebar_min": 0.8, "lebar_max": 1.0, "kedalaman_": 1.0, "kedalaman1": 1.5, "Shape_Leng": 0.2639319186 }, "geometry": { "type": "MultiLineString", "coordinates": [ [ [ 106.865382661134731, -6.200901972966248 ], [ 106.865377891736387, -6.200838862175959 ], [ 106.865374312323382, -6.200786711419527 ], [ 106.865370732912766, -6.200734560662778 ], [ 106.865369441687307, -6.200715745242465 ], [ 106.865361896337973, -6.200620223520045 ], [ 106.865347946887979, -6.200482946095048 ], [ 106.865340167380694, -6.20040639344163 ], [ 106.865200735837931, -6.199034260730112 ], [ 106.865193422459939, -6.198962291383549 ], [ 106.865157639818293, -6.198610152505207 ], [ 106.86515325233357, -6.198556063356937 ] ] ] } }
]
}
