{
"type": "FeatureCollection",
"name": "saluran_phb_makasar",
"crs": { "type": "name", "properties": { "name": "urn:ogc:def:crs:OGC:1.3:CRS84" } },
"features": [
{ "type": "Feature", "properties": { "OBJECTID": 199, "toponimi": "Sal. Phb Cililitan Besar", "kewenangan": "Pemprov DKI", "jenis": "Saluran Drainase Tersier", "panjang": "3068", "lebar": "4 - 7", "kedalaman": "1.5", "kota": "Jakarta Timur", "kecamatan": "Makasar", "lebar_min": 4.0, "lebar_max": 7.0, "kedalaman_": 1.5, "kedalaman1": 1.5, "Shape_Leng": 3.0952984933400001 }, "geometry": { "type": "MultiLineString", "coordinates": [ [ [ 106.872819513169745, -6.2712376730787, 0.0 ], [ 106.872874063030608, -6.271235193325532, 0.0 ], [ 106.872928611985841, -6.271232713570099, 0.0 ], [ 106.872994930499104, -6.271229616701322, 0.0 ], [ 106.873061249009254, -6.271226519824427, 0.0 ], [ 106.873122642790463, -6.271203865740635, 0.0 ], [ 106.873155187318375, -6.271147062040171, 0.0 ], [ 106.873153660587718, -6.271068437368406, 0.0 ], [ 106.873155810552063, -6.270989826677924, 0.0 ], [ 106.873161631501148, -6.270911402681824, 0.0 ], [ 106.873171111396829, -6.270833337211554, 0.0 ], [ 106.873198319340545, -6.270748168676077, 0.0 ], [ 106.873225526378832, -6.270663001048874, 0.0 ], [ 106.873248190787407, -6.270582540379943, 0.0 ], [ 106.873268509967602, -6.270517391702255, 0.0 ], [ 106.873288830048466, -6.27045224302202, 0.0 ], [ 106.873309149222891, -6.270387094345542, 0.0 ], [ 106.873334408114047, -6.270319383739987, 0.0 ], [ 106.873359667904438, -6.270251673131811, 0.0 ], [ 106.873384926787026, -6.270183962527407, 0.0 ], [ 106.87341195523905, -6.270122179520228, 0.0 ], [ 106.873456553021342, -6.270071612048763, 0.0 ], [ 106.87351445626598, -6.270037094459276, 0.0 ], [ 106.873565087521129, -6.270022560115552, 0.0 ], [ 106.873615718771958, -6.270008025767715, 0.0 ], [ 106.873666350018738, -6.269993491415809, 0.0 ], [ 106.873716980357955, -6.269978957063033, 0.0 ], [ 106.873777120209027, -6.269949078775308, 0.0 ], [ 106.873837259148218, -6.269919200485797, 0.0 ], [ 106.873900791825989, -6.269881206182498, 0.0 ], [ 106.87394209779967, -6.269819750959575, 0.0 ], [ 106.873953308125166, -6.269746544543398, 0.0 ], [ 106.873946331810018, -6.2696673869545, 0.0 ], [ 106.873939355497271, -6.269588228460504, 0.0 ], [ 106.873932378289808, -6.269509070872995, 0.0 ], [ 106.873925401991556, -6.269429913281291, 0.0 ], [ 106.873920640121497, -6.26935727119658, 0.0 ], [ 106.873919145062388, -6.269284488138936, 0.0 ], [ 106.873920622309029, -6.269210062468338, 0.0 ], [ 106.873924767256739, -6.269135737566466, 0.0 ], [ 106.873931574825406, -6.269061609291365, 0.0 ], [ 106.873941036320431, -6.268987773514152, 0.0 ], [ 106.873960108206447, -6.268915209873487, 0.0 ], [ 106.873983469335954, -6.26884391207662, 0.0 ], [ 106.874011038396986, -6.268774136287878, 0.0 ], [ 106.874043305127856, -6.268705124888806, 0.0 ], [ 106.874067133787705, -6.268629636506806, 0.0 ], [ 106.874090962443518, -6.268554148125443, 0.0 ], [ 106.874114792002231, -6.268478660645839, 0.0 ], [ 106.874138620650214, -6.268403172266037, 0.0 ], [ 106.874162449294232, -6.268327683887022, 0.0 ], [ 106.874188027566518, -6.268260131285326, 0.0 ], [ 106.87421360583771, -6.268192579588298, 0.0 ], [ 106.874240128791286, -6.268121866327351, 0.0 ], [ 106.874266652643612, -6.268051153063834, 0.0 ], [ 106.874293175584555, -6.267980438899986, 0.0 ], [ 106.874319699427488, -6.267909725637599, 0.0 ], [ 106.874346222362107, -6.26783901237912, 0.0 ], [ 106.874371792061126, -6.267769067437918, 0.0 ], [ 106.874397361758795, -6.267699123401394, 0.0 ], [ 106.874427292377192, -6.267618637690506, 0.0 ], [ 106.874468026918223, -6.267583695944329, 0.0 ], [ 106.874520849278298, -6.267574285691077, 0.0 ], [ 106.8746011821937, -6.267575912548877, 0.0 ], [ 106.874681515105991, -6.267577539394212, 0.0 ], [ 106.874753722928673, -6.267574299323377, 0.0 ], [ 106.87482490074521, -6.267561715852203, 0.0 ], [ 106.874884591167159, -6.267544988154249, 0.0 ], [ 106.874943043248678, -6.267524339976304, 0.0 ], [ 106.874999998888271, -6.267499860848519, 0.0 ], [ 106.875023635046787, -6.267463363604428, 0.0 ], [ 106.875030601742608, -6.267421676495927, 0.0 ], [ 106.875030855835135, -6.267383781878253, 0.0 ], [ 106.875032888414779, -6.267324711200136, 0.0 ], [ 106.875034920092531, -6.267265640525388, 0.0 ], [ 106.875036824886479, -6.267192800143992, 0.0 ], [ 106.875038728782613, -6.267119960669884, 0.0 ], [ 106.875042265721049, -6.26704467415882, 0.0 ], [ 106.875045802664758, -6.266969388552033, 0.0 ], [ 106.875050708593633, -6.266889065567058, 0.0 ], [ 106.875055615431549, -6.266808743483157, 0.0 ], [ 106.87506777042843, -6.26674505167871, 0.0 ], [ 106.875073021747923, -6.266682502087329, 0.0 ], [ 106.875078272164728, -6.266619952499276, 0.0 ], [ 106.875085301422331, -6.266548722163382, 0.0 ], [ 106.875092330681028, -6.266477491827795, 0.0 ], [ 106.87509969319315, -6.266396601297395, 0.0 ], [ 106.875101571142068, -6.26631193567338, 0.0 ], [ 106.875103449097722, -6.266227270953362, 0.0 ], [ 106.875096576880949, -6.266137275928274, 0.0 ], [ 106.875090523584333, -6.266069121264018, 0.0 ], [ 106.875084470288684, -6.266000965694958, 0.0 ], [ 106.875078417000466, -6.265932811029309, 0.0 ], [ 106.875069247093464, -6.265862567172436, 0.0 ], [ 106.875060077191463, -6.265792323314391, 0.0 ], [ 106.87505090729482, -6.265722079455324, 0.0 ], [ 106.875042322135272, -6.265672115333392, 0.0 ], [ 106.87502760516152, -6.265623603493991, 0.0 ], [ 106.874999998851692, -6.265549529574066, 0.0 ], [ 106.874969898930175, -6.265487915575732, 0.0 ], [ 106.874939798116955, -6.265426302480759, 0.0 ], [ 106.874920252186726, -6.26537541823497, 0.0 ], [ 106.874900705354818, -6.265324533086323, 0.0 ], [ 106.87488477290897, -6.265281530028973, 0.0 ], [ 106.874868841370017, -6.265238526967097, 0.0 ], [ 106.87485576836167, -6.265192643018221, 0.0 ], [ 106.87485134689237, -6.26515964569445, 0.0 ], [ 106.87484978485459, -6.265123767481731, 0.0 ], [ 106.87484743365043, -6.265068553284027, 0.0 ], [ 106.874845081544848, -6.265013339089286, 0.0 ], [ 106.874842285292047, -6.264985320519174, 0.0 ], [ 106.874840054518472, -6.264963081045385, 0.0 ], [ 106.874838863439777, -6.264928606550835, 0.0 ], [ 106.874840840117216, -6.26487055503882, 0.0 ], [ 106.87484281589586, -6.264812504434223, 0.0 ], [ 106.874834112224789, -6.264785263750063, 0.0 ], [ 106.874800657022178, -6.264727069445776, 0.0 ], [ 106.874769145161309, -6.264667798584859, 0.0 ], [ 106.874738519690212, -6.264603714488042, 0.0 ], [ 106.874711306062579, -6.264538107363061, 0.0 ], [ 106.874684191141256, -6.264456357234749, 0.0 ], [ 106.874664803871426, -6.26437243575179, 0.0 ], [ 106.874653313107146, -6.264287071959676, 0.0 ], [ 106.87465156982752, -6.264278883901935, 0.0 ], [ 106.874642692010809, -6.264202842475437, 0.0 ], [ 106.874639636263041, -6.264150463479011, 0.0 ], [ 106.87463653185398, -6.264084449209259, 0.0 ], [ 106.874636311583174, -6.264022730182422, 0.0 ], [ 106.874636555316187, -6.264019881247104, 0.0 ], [ 106.87464009814542, -6.263933285623216, 0.0 ], [ 106.874643640974639, -6.263846689095282, 0.0 ], [ 106.874647183810112, -6.26376009347157, 0.0 ], [ 106.874634349458844, -6.263693961168276, 0.0 ], [ 106.87461133954065, -6.263610195470717, 0.0 ], [ 106.87458832873304, -6.263526430677015, 0.0 ], [ 106.874565318837057, -6.263442664972514, 0.0 ], [ 106.874542308051545, -6.263358900171942, 0.0 ], [ 106.874519298177489, -6.263275134460519, 0.0 ], [ 106.874523662010603, -6.263223123155552, 0.0 ], [ 106.874543518092764, -6.263174859343109, 0.0 ], [ 106.874554599055685, -6.26315198821996, 0.0 ], [ 106.874578827794906, -6.263108123736716, 0.0 ], [ 106.874603055627148, -6.263064259256702, 0.0 ], [ 106.874628674758029, -6.263008190144335, 0.0 ], [ 106.874658505287911, -6.262926269068177, 0.0 ], [ 106.874686449464036, -6.262851770549751, 0.0 ], [ 106.874714392734589, -6.262777272939448, 0.0 ], [ 106.874742336900198, -6.262702774422392, 0.0 ], [ 106.874757244472619, -6.262659661138302, 0.0 ], [ 106.874772152043619, -6.262616547854402, 0.0 ], [ 106.874786321710104, -6.262567695871502, 0.0 ], [ 106.874800491375169, -6.262518843888939, 0.0 ], [ 106.874823157203153, -6.262439102096339, 0.0 ], [ 106.874845823024529, -6.26235935940048, 0.0 ], [ 106.874868488845408, -6.262279617609551, 0.0 ], [ 106.87488925124417, -6.262202513689086, 0.0 ], [ 106.87491001454039, -6.262125408862074, 0.0 ], [ 106.874930776933368, -6.262048304943293, 0.0 ], [ 106.87494438638771, -6.26198021109437, 0.0 ], [ 106.87495799674457, -6.261912117242753, 0.0 ], [ 106.874971606196866, -6.261844023394963, 0.0 ], [ 106.874985215648252, -6.261775929547643, 0.0 ], [ 106.87499999882553, -6.261696949190502, 0.0 ], [ 106.875012971289365, -6.261627848591813, 0.0 ], [ 106.875025944659185, -6.26155874889464, 0.0 ], [ 106.875038917124556, -6.261489649201189, 0.0 ], [ 106.875051889586089, -6.261420548604195, 0.0 ], [ 106.875061433221418, -6.261372766488676, 0.0 ], [ 106.87507179541926, -6.261321169564038, 0.0 ], [ 106.875082157616561, -6.261269572639691, 0.0 ], [ 106.875096633145716, -6.261198067971455, 0.0 ], [ 106.875111109580686, -6.261126564204653, 0.0 ], [ 106.875125585107511, -6.261055059537656, 0.0 ], [ 106.875138338533716, -6.260990160394609, 0.0 ], [ 106.87515109105874, -6.260925262159369, 0.0 ], [ 106.87516384448314, -6.260860363017298, 0.0 ], [ 106.875176732335802, -6.260794394693398, 0.0 ], [ 106.875189621087813, -6.260728425462664, 0.0 ], [ 106.875202508938671, -6.260662457139682, 0.0 ], [ 106.875211705542327, -6.260588828507644, 0.0 ], [ 106.875220902146481, -6.26051519987607, 0.0 ], [ 106.875230098751004, -6.260441571244859, 0.0 ], [ 106.875238080237423, -6.260361150480697, 0.0 ], [ 106.875246061721825, -6.26028072881279, 0.0 ], [ 106.875254043210788, -6.260200308049394, 0.0 ], [ 106.875261991558816, -6.260131617810554, 0.0 ], [ 106.875270703344142, -6.260056324570067, 0.0 ], [ 106.875279415130194, -6.259981031329964, 0.0 ], [ 106.875292483523637, -6.259904126706674, 0.0 ], [ 106.875305552820208, -6.259827222080673, 0.0 ], [ 106.875318621212571, -6.259750317458457, 0.0 ], [ 106.875333711696499, -6.259672129861479, 0.0 ], [ 106.875348802182373, -6.259593943169273, 0.0 ], [ 106.875358982645011, -6.259540543130157, 0.0 ], [ 106.875369163107223, -6.25948714309126, 0.0 ], [ 106.875382051630851, -6.259405156903274, 0.0 ], [ 106.875394939250782, -6.259323170719058, 0.0 ], [ 106.875402964310524, -6.259257240572662, 0.0 ], [ 106.875410990270936, -6.259191309519162, 0.0 ], [ 106.875419015331531, -6.259125379373396, 0.0 ], [ 106.875430693661201, -6.259042285410185, 0.0 ], [ 106.875442371090671, -6.258959192354951, 0.0 ], [ 106.87545475655223, -6.258877013576211, 0.0 ], [ 106.87546714201703, -6.258794835702279, 0.0 ], [ 106.8754805440513, -6.25870837306093, 0.0 ], [ 106.875493945185013, -6.258621911327634, 0.0 ], [ 106.87551038295129, -6.258540458572614, 0.0 ], [ 106.875526819815789, -6.258459006725742, 0.0 ], [ 106.87553658926349, -6.25839094651142, 0.0 ], [ 106.875546357807664, -6.258322886300768, 0.0 ], [ 106.875554990623755, -6.258248756991258, 0.0 ], [ 106.875563623440314, -6.258174627682069, 0.0 ], [ 106.875572708585381, -6.258111291370017, 0.0 ], [ 106.875581794630676, -6.258047954150823, 0.0 ], [ 106.875590879775842, -6.257984617839409, 0.0 ], [ 106.875604666199663, -6.257897756006886, 0.0 ], [ 106.875618452623229, -6.257810894175009, 0.0 ], [ 106.875626281349355, -6.257727411626553, 0.0 ], [ 106.875634110076945, -6.257643929078489, 0.0 ], [ 106.875637121270685, -6.257575950873663, 0.0 ], [ 106.875640131562918, -6.257507972672228, 0.0 ], [ 106.875643142760467, -6.257439994467549, 0.0 ], [ 106.875646020473752, -6.257353845191393, 0.0 ], [ 106.875648898190292, -6.257267695915251, 0.0 ], [ 106.87565449116444, -6.257201330529437, 0.0 ], [ 106.875660085043094, -6.257134965140515, 0.0 ], [ 106.875665678019274, -6.257068599755077, 0.0 ], [ 106.875672067169688, -6.256999742409273, 0.0 ], [ 106.875678455420584, -6.256930885971133, 0.0 ], [ 106.875684844572888, -6.256862028625817, 0.0 ], [ 106.875690640374046, -6.256784636443143, 0.0 ], [ 106.875696437083789, -6.256707245161622, 0.0 ], [ 106.875702232888358, -6.256629852979361, 0.0 ], [ 106.87570878420955, -6.256554782661352, 0.0 ], [ 106.875715336432492, -6.256479711436104, 0.0 ], [ 106.87572188775637, -6.256404641118664, 0.0 ], [ 106.875728434773961, -6.256325576294932, 0.0 ], [ 106.875734980892645, -6.256246512378879, 0.0 ], [ 106.875741527913377, -6.256167447555814, 0.0 ], [ 106.875748465963383, -6.256098204894527, 0.0 ], [ 106.875755404014342, -6.25602896223364, 0.0 ], [ 106.875762161441514, -6.255961516758213, 0.0 ], [ 106.875767933805989, -6.255916310489885, 0.0 ], [ 106.875773706170506, -6.255871104221703, 0.0 ], [ 106.875781730825622, -6.255808599906072, 0.0 ], [ 106.87578975457734, -6.255746095593993, 0.0 ], [ 106.875803300238687, -6.255680899808417, 0.0 ], [ 106.875816844992073, -6.255615703122352, 0.0 ], [ 106.875830390651331, -6.255550507337846, 0.0 ], [ 106.875853962855629, -6.255473376269073, 0.0 ], [ 106.875877534149311, -6.255396244300118, 0.0 ], [ 106.875900303878794, -6.255320346642721, 0.0 ], [ 106.87592307270107, -6.255244448989302, 0.0 ], [ 106.87593818460455, -6.255194062967643, 0.0 ], [ 106.875953295605981, -6.255143677853669, 0.0 ], [ 106.875960331745702, -6.255120181975107, 0.0 ], [ 106.875979502071374, -6.255048430934192, 0.0 ], [ 106.875983462548547, -6.254974264983628, 0.0 ], [ 106.875972041154938, -6.254900878183433, 0.0 ], [ 106.875966962890303, -6.254881525872264, 0.0 ], [ 106.87594189495529, -6.254816917339806, 0.0 ], [ 106.875917460447099, -6.254763973655596, 0.0 ], [ 106.875893025044789, -6.254711030876122, 0.0 ], [ 106.875858966315164, -6.254638412049182, 0.0 ], [ 106.875847605329554, -6.254609321900076, 0.0 ], [ 106.875826360663069, -6.2545379665188, 0.0 ], [ 106.875822400964978, -6.254463617271095, 0.0 ], [ 106.87583594606653, -6.254390406230875, 0.0 ], [ 106.875856149225015, -6.254326274371958, 0.0 ], [ 106.875877435439151, -6.25424939107709, 0.0 ], [ 106.875894789493131, -6.25418671602718, 0.0 ], [ 106.875912142644736, -6.254124041885121, 0.0 ], [ 106.875930823514295, -6.254064271644268, 0.0 ], [ 106.875964185193013, -6.253989817175372, 0.0 ], [ 106.876012526247777, -6.253924104765515, 0.0 ], [ 106.876031139549781, -6.253901389424048, 0.0 ], [ 106.876074013625299, -6.253846930559209, 0.0 ], [ 106.876129361488097, -6.253786753631893, 0.0 ], [ 106.87618470933505, -6.253726575798321, 0.0 ], [ 106.876235792105319, -6.253655659268833, 0.0 ], [ 106.876286873959529, -6.253584742741528, 0.0 ], [ 106.876321689346156, -6.253522950179382, 0.0 ], [ 106.876349018475437, -6.253457496334726, 0.0 ], [ 106.876368485995599, -6.253389286695262, 0.0 ], [ 106.876379845361228, -6.253335076886586, 0.0 ], [ 106.876391203822493, -6.253280867081505, 0.0 ], [ 106.876405441062431, -6.253201347160392, 0.0 ], [ 106.876419679205014, -6.253121827236678, 0.0 ], [ 106.87643391644329, -6.253042307316848, 0.0 ], [ 106.876448153680712, -6.252962787397742, 0.0 ], [ 106.876461908696598, -6.252891958052135, 0.0 ], [ 106.876475662804879, -6.252821127806137, 0.0 ], [ 106.87648941781886, -6.252750298461581, 0.0 ], [ 106.876503171928334, -6.252679469120871, 0.0 ], [ 106.876516052302904, -6.252609396958998, 0.0 ], [ 106.876528931776434, -6.252539325705086, 0.0 ], [ 106.876541812149526, -6.25246925354425, 0.0 ], [ 106.876559372309799, -6.252406882470884, 0.0 ], [ 106.876576933371567, -6.252344511394844, 0.0 ], [ 106.876594493527605, -6.252282140322516, 0.0 ], [ 106.876621407345539, -6.252211470142027, 0.0 ], [ 106.876655512926988, -6.252143980386678, 0.0 ], [ 106.876696440614566, -6.252080401118008, 0.0 ], [ 106.876739798970121, -6.252004957093765, 0.0 ], [ 106.876768778309582, -6.25192290085345, 0.0 ], [ 106.87679136753205, -6.25185115300453, 0.0 ], [ 106.876810318121528, -6.251790024693779, 0.0 ], [ 106.876829268708462, -6.251728896383577, 0.0 ], [ 106.876850796158564, -6.251660159519643, 0.0 ], [ 106.87687232270504, -6.251591423563733, 0.0 ], [ 106.87689723434687, -6.251509636822199, 0.0 ], [ 106.876922145080968, -6.251427850084786, 0.0 ], [ 106.876946070076485, -6.251347084033028, 0.0 ], [ 106.876969994161328, -6.251266317081321, 0.0 ], [ 106.876988781822334, -6.251198525796664, 0.0 ], [ 106.877007568577284, -6.251130734515813, 0.0 ], [ 106.877024613356028, -6.251061435914477, 0.0 ], [ 106.877041658136008, -6.250992138217911, 0.0 ], [ 106.877052727060914, -6.250946190650432, 0.0 ], [ 106.877063795081369, -6.2509002430865, 0.0 ], [ 106.877078438163451, -6.250838520769918, 0.0 ], [ 106.877093081247423, -6.250776799357922, 0.0 ], [ 106.877106094625432, -6.250717182289935, 0.0 ], [ 106.877119108002546, -6.250657565222384, 0.0 ], [ 106.877129971798965, -6.250603250513035, 0.0 ], [ 106.877140835591504, -6.250548934899844, 0.0 ], [ 106.877152915517556, -6.250488530942484, 0.0 ], [ 106.87716499634638, -6.25042812698232, 0.0 ], [ 106.877175671476806, -6.250375128481299, 0.0 ], [ 106.877186345703123, -6.250322129983779, 0.0 ], [ 106.877196355526507, -6.250269806544033, 0.0 ], [ 106.877206364445939, -6.250217483107869, 0.0 ], [ 106.877223274610571, -6.250132737651898, 0.0 ], [ 106.877241154401474, -6.25005157729201, 0.0 ], [ 106.877251484657904, -6.249998910942333, 0.0 ], [ 106.877269956257791, -6.249918509762013, 0.0 ], [ 106.877288428762398, -6.249838109483444, 0.0 ], [ 106.877306900361262, -6.249757709208825, 0.0 ], [ 106.877325371954754, -6.249677308030964, 0.0 ], [ 106.877328506922453, -6.249663287991757, 0.0 ], [ 106.877332223138296, -6.249649598603022, 0.0 ], [ 106.877353687489773, -6.249570535726765, 0.0 ], [ 106.87737515183484, -6.249491471947239, 0.0 ], [ 106.877396617083406, -6.249412409069401, 0.0 ], [ 106.877418081425361, -6.249333346195634, 0.0 ], [ 106.877439545760907, -6.249254282418602, 0.0 ], [ 106.877461010096582, -6.249175219546512, 0.0 ], [ 106.877473351380758, -6.249114128418887, 0.0 ], [ 106.877496185538519, -6.249038886100602, 0.0 ], [ 106.87751902059928, -6.248963644684001, 0.0 ], [ 106.877541854749893, -6.248888402367286, 0.0 ], [ 106.877544324128024, -6.248870164150668, 0.0 ], [ 106.877544252476895, -6.248850069752983, 0.0 ], [ 106.877543110068217, -6.248762045235276, 0.0 ], [ 106.877541967667526, -6.248674021621341, 0.0 ], [ 106.877540825268412, -6.248585997102878, 0.0 ], [ 106.877538665199069, -6.248543502701147, 0.0 ], [ 106.877544894792948, -6.24848894596489, 0.0 ], [ 106.877568414851396, -6.248439334658372, 0.0 ], [ 106.877607616635885, -6.248399865228716, 0.0 ], [ 106.877657956656734, -6.248376218372308, 0.0 ], [ 106.877722135072688, -6.2483568511534, 0.0 ], [ 106.877786313485316, -6.248337484832168, 0.0 ], [ 106.87785810440046, -6.248316161873321, 0.0 ], [ 106.877930078251907, -6.248295466634639, 0.0 ], [ 106.878011493592098, -6.248269588558657, 0.0 ], [ 106.878091080686445, -6.248238534435862, 0.0 ], [ 106.878168512007079, -6.248202432017989, 0.0 ], [ 106.878243468242061, -6.248161432535123, 0.0 ], [ 106.878315640976908, -6.248115702548981, 0.0 ], [ 106.878384730912899, -6.248065431192393, 0.0 ], [ 106.878450455086863, -6.24801082743119, 0.0 ], [ 106.878512540522365, -6.24795211375752, 0.0 ], [ 106.87857073239158, -6.247889534298213, 0.0 ], [ 106.878624791275371, -6.247823346687119, 0.0 ], [ 106.878674492262448, -6.24775382297253, 0.0 ], [ 106.878719633088394, -6.247681251396298, 0.0 ], [ 106.878760025073944, -6.247605929193214, 0.0 ], [ 106.878795503086423, -6.247528168883993, 0.0 ], [ 106.878825920993179, -6.247448290154555, 0.0 ], [ 106.878857537470552, -6.247367537356075, 0.0 ], [ 106.878883834447961, -6.247284895813366, 0.0 ], [ 106.878904700239588, -6.247200716734052, 0.0 ], [ 106.878920046674153, -6.247115357570545, 0.0 ], [ 106.878943958114789, -6.247034177514441, 0.0 ], [ 106.878980276581601, -6.246957744206765, 0.0 ], [ 106.879028106176392, -6.246887945086321, 0.0 ], [ 106.879086268508487, -6.246826501333001, 0.0 ], [ 106.879141679295884, -6.246784225348986, 0.0 ], [ 106.879207140869426, -6.246730789751351, 0.0 ], [ 106.879272602432152, -6.246677355053627, 0.0 ], [ 106.879325555435699, -6.246644152802967, 0.0 ], [ 106.879378507531328, -6.246610951456297, 0.0 ], [ 106.879460991922556, -6.246577884188697, 0.0 ], [ 106.879535637202366, -6.246536183207406, 0.0 ], [ 106.879602820003129, -6.246483277589292, 0.0 ], [ 106.87963109339772, -6.246452693301262, 0.0 ] ] ] } },
{ "type": "Feature", "properties": { "OBJECTID": 1132, "toponimi": "Sal. Phb PLN/Gading", "kewenangan": "Pemprov DKI", "jenis": "Saluran Drainase Tersier", "panjang": "1302", "lebar": "2.5", "kedalaman": "2", "kota": "Jakarta Timur", "kecamatan": "Kramat Jati", "lebar_min": 2.5, "lebar_max": 2.5, "kedalaman_": 2.0, "kedalaman1": 2.0, "Shape_Leng": 0.67587055034 }, "geometry": { "type": "MultiLineString", "coordinates": [ [ [ 106.873231968344243, -6.25985827106312, 0.0 ], [ 106.873267901703031, -6.259871847029596, 0.0 ] ] ] } },
{ "type": "Feature", "properties": { "OBJECTID": 197, "toponimi": "Sal. Phb Pinang Ranti", "kewenangan": "Pemprov DKI", "jenis": "Saluran Drainase Tersier", "panjang": "1809", "lebar": "3", "kedalaman": "2", "kota": "Jakarta Timur", "kecamatan": "Makasar", "lebar_min": 3.0, "lebar_max": 3.0, "kedalaman_": 2.0, "kedalaman1": 2.0, "Shape_Leng": 1.8733434202000001 }, "geometry": { "type": "MultiLineString", "coordinates": [ [ [ 106.880955684785022, -6.289975157046392, 0.0 ], [ 106.880873928790152, -6.28993850898271, 0.0 ], [ 106.880797655623425, -6.289891490530885, 0.0 ], [ 106.88072817479086, -6.289834906186925, 0.0 ], [ 106.880666674407237, -6.289769726343144, 0.0 ], [ 106.880636082150929, -6.289708930637835, 0.0 ], [ 106.880606368453229, -6.289647701393857, 0.0 ], [ 106.880577538774446, -6.289586049441661, 0.0 ], [ 106.880549598587834, -6.289523989227904, 0.0 ], [ 106.880515352261938, -6.289441341752805, 0.0 ], [ 106.880481105949897, -6.289358694272088, 0.0 ], [ 106.880446859652068, -6.289276046785535, 0.0 ], [ 106.880416222932496, -6.289199845506025, 0.0 ], [ 106.880385586221323, -6.289123643317646, 0.0 ], [ 106.880354949525142, -6.289047442028733, 0.0 ], [ 106.880326463801126, -6.288973109093317, 0.0 ], [ 106.880297978087782, -6.288898776153684, 0.0 ], [ 106.880269491481556, -6.288824443213239, 0.0 ], [ 106.88024100578987, -6.288750110265339, 0.0 ], [ 106.880209998768279, -6.288683238338497, 0.0 ], [ 106.8801754776064, -6.288618113198848, 0.0 ], [ 106.880137540555239, -6.288554918937379, 0.0 ], [ 106.880096879299771, -6.28849955893242, 0.0 ], [ 106.88000489057022, -6.288443618670689, 0.0 ], [ 106.87994891856593, -6.288414617083413, 0.0 ], [ 106.879837080996438, -6.288386235068363, 0.0 ], [ 106.879537612431847, -6.28835352074091, 0.0 ], [ 106.879252971191434, -6.288326384826145, 0.0 ], [ 106.879126682039214, -6.288306469481566, 0.0 ], [ 106.87907671520297, -6.288281186634094, 0.0 ], [ 106.879045029303185, -6.288244634796504, 0.0 ], [ 106.879022582513144, -6.288188650413438, 0.0 ], [ 106.878999419034528, -6.288123317038686, 0.0 ], [ 106.878974389407176, -6.288058676616146, 0.0 ], [ 106.878947515505786, -6.287994781507176, 0.0 ], [ 106.878918818305081, -6.287931684980356, 0.0 ], [ 106.878892580490273, -6.287874314596712, 0.0 ], [ 106.878866341782341, -6.287816945117312, 0.0 ], [ 106.87883957562839, -6.287747313714389, 0.0 ], [ 106.878812809483946, -6.287677682307832, 0.0 ], [ 106.87878604334567, -6.287608049993405, 0.0 ], [ 106.878759277220141, -6.287538418579493, 0.0 ], [ 106.878732511104076, -6.287468787161926, 0.0 ], [ 106.878701514091773, -6.28739858144614, 0.0 ], [ 106.878670516189757, -6.287328376633317, 0.0 ], [ 106.878639519198529, -6.287258170908538, 0.0 ], [ 106.878636074866435, -6.287176166518285, 0.0 ], [ 106.87866520525553, -6.287136444911217, 0.0 ], [ 106.87873055047136, -6.287111938279144, 0.0 ], [ 106.878918346555338, -6.286980895547823, 0.0 ], [ 106.879017760676177, -6.286909488700603, 0.0 ], [ 106.879102920215502, -6.28685964268225, 0.0 ], [ 106.879319407739914, -6.286736319374301, 0.0 ], [ 106.879401856842662, -6.2866571508195, 0.0 ], [ 106.879442709546609, -6.286604857416754, 0.0 ], [ 106.879487311977556, -6.286508224859463, 0.0 ], [ 106.879505934050542, -6.286433197114015, 0.0 ], [ 106.879551326805711, -6.286193810002571, 0.0 ], [ 106.879550601892618, -6.286038240128714, 0.0 ], [ 106.879551569503462, -6.286022348123344, 0.0 ], [ 106.879582230971479, -6.285910802110937, 0.0 ], [ 106.879669330030168, -6.285675176393688, 0.0 ], [ 106.879694721637051, -6.285600098097103, 0.0 ], [ 106.879756492503986, -6.285457476016893, 0.0 ], [ 106.879786225140833, -6.285392511241252, 0.0 ], [ 106.87988786484452, -6.285396709011365, 0.0 ], [ 106.879913887269453, -6.285386838030726, 0.0 ], [ 106.879969481947683, -6.285267351694325, 0.0 ], [ 106.88002909228878, -6.285177835951638, 0.0 ], [ 106.880146519465967, -6.285043135665746, 0.0 ], [ 106.880244848466916, -6.284851142445933, 0.0 ], [ 106.880326383483194, -6.284698972058645, 0.0 ], [ 106.880285069075811, -6.28459422817952, 0.0 ], [ 106.88028306220896, -6.284587187594338, 0.0 ], [ 106.880255110329756, -6.284538344987211, 0.0 ], [ 106.880235293164446, -6.284479594450227, 0.0 ], [ 106.880220594943239, -6.284419357175155, 0.0 ], [ 106.880211125695055, -6.284358078510299, 0.0 ], [ 106.880213914175627, -6.284287122117074, 0.0 ], [ 106.880222241440308, -6.284216601497413, 0.0 ], [ 106.880234136029813, -6.284156632069338, 0.0 ], [ 106.880273363925824, -6.284084482287548, 0.0 ], [ 106.880323170936649, -6.283985875382467, 0.0 ], [ 106.880359492019679, -6.283941420034354, 0.0 ], [ 106.880386725127181, -6.283906122887255, 0.0 ], [ 106.880402898899078, -6.283874776832526, 0.0 ], [ 106.88039863557924, -6.283779621979149, 0.0 ], [ 106.880378109680819, -6.28370567533206, 0.0 ], [ 106.880376743852366, -6.283666283981688, 0.0 ], [ 106.88037848762265, -6.283607612336279, 0.0 ], [ 106.880374232301833, -6.283511156388082, 0.0 ], [ 106.880358487642127, -6.283480576081333, 0.0 ], [ 106.880319843212007, -6.283422049644764, 0.0 ], [ 106.88029624190392, -6.283380417297384, 0.0 ], [ 106.880282308923441, -6.283310068934346, 0.0 ], [ 106.880272144404614, -6.283200597371076, 0.0 ], [ 106.880322624962503, -6.28298433272139, 0.0 ], [ 106.880368800440266, -6.28290562011764, 0.0 ], [ 106.880416798063024, -6.282847434974469, 0.0 ], [ 106.880522445196974, -6.282697784614002, 0.0 ], [ 106.880562401346722, -6.282647542349693, 0.0 ], [ 106.88060129069811, -6.282618030512483, 0.0 ], [ 106.880640002811333, -6.282598295817567, 0.0 ], [ 106.880682615922836, -6.282578114913802, 0.0 ], [ 106.880725821948289, -6.282559237459159, 0.0 ], [ 106.880782906921709, -6.282531250577567, 0.0 ], [ 106.880839082790516, -6.282501478564242, 0.0 ], [ 106.88089429272982, -6.282469949652391, 0.0 ], [ 106.880955080753992, -6.282423390989782, 0.0 ], [ 106.881013063364179, -6.282373377733324, 0.0 ], [ 106.881068000200187, -6.282307580942514, 0.0 ], [ 106.881132954459588, -6.282251664771719, 0.0 ], [ 106.881206177688668, -6.28220713638316, 0.0 ], [ 106.881259273289828, -6.282167590778507, 0.0 ], [ 106.881306615917666, -6.282121304676513, 0.0 ], [ 106.88134735827866, -6.282069108417219, 0.0 ], [ 106.881381238531105, -6.282003258955371, 0.0 ], [ 106.881415001091028, -6.281937348435266, 0.0 ], [ 106.881448647775429, -6.281871379562705, 0.0 ], [ 106.881482177674059, -6.281805350532796, 0.0 ], [ 106.881501020947383, -6.281763804279278, 0.0 ], [ 106.881518483191698, -6.28172165902523, 0.0 ], [ 106.881554184700121, -6.281640118839423, 0.0 ], [ 106.881588397515316, -6.28155794297104, 0.0 ], [ 106.881621109982618, -6.281475156778068, 0.0 ], [ 106.881652311363879, -6.281391789231732, 0.0 ], [ 106.881681991817715, -6.281307867491967, 0.0 ], [ 106.881710140599679, -6.281223418721654, 0.0 ], [ 106.881736748778721, -6.281138471885652, 0.0 ], [ 106.881761808320974, -6.281053054137154, 0.0 ], [ 106.881785369018218, -6.28098706277742, 0.0 ], [ 106.881810293224135, -6.280921574642535, 0.0 ], [ 106.881847640035502, -6.280848318635499, 0.0 ], [ 106.881880234975966, -6.280772825691215, 0.0 ], [ 106.881907945426235, -6.280695404599993, 0.0 ], [ 106.881930658668651, -6.280616370409196, 0.0 ], [ 106.881948281893401, -6.280536046231867, 0.0 ], [ 106.881959037293257, -6.280464365954246, 0.0 ], [ 106.881965257482378, -6.280392150461904, 0.0 ], [ 106.881964142042008, -6.280345249334354, 0.0 ], [ 106.881950681638529, -6.280300309391102, 0.0 ], [ 106.881941690692216, -6.280280864676008, 0.0 ], [ 106.881898040206721, -6.280208896357196, 0.0 ], [ 106.881870181016509, -6.280167430376054, 0.0 ], [ 106.881839119810749, -6.280128307693095, 0.0 ], [ 106.881803283851241, -6.280067490081886, 0.0 ], [ 106.88177163591736, -6.280004632123847, 0.0 ], [ 106.881739987089105, -6.279941774164712, 0.0 ], [ 106.881719431486346, -6.279878135816923, 0.0 ], [ 106.881698875890464, -6.279814497466604, 0.0 ], [ 106.881678320301816, -6.279750859113923, 0.0 ], [ 106.881662377221488, -6.27968437058803, 0.0 ], [ 106.881655124849942, -6.279616380673882, 0.0 ], [ 106.881656863342911, -6.279543162318832, 0.0 ], [ 106.881665359640465, -6.279470418752168, 0.0 ], [ 106.881673287164816, -6.279411145350354, 0.0 ], [ 106.881675092916012, -6.279351370461359, 0.0 ], [ 106.88167304805107, -6.27928140615979, 0.0 ], [ 106.881652695223551, -6.279236475603268, 0.0 ], [ 106.881634470705549, -6.279190640482471, 0.0 ], [ 106.881624810344874, -6.279125930412143, 0.0 ], [ 106.881632770393949, -6.279050045067121, 0.0 ], [ 106.88163912651811, -6.278989239367593, 0.0 ], [ 106.881645482642938, -6.278928433668242, 0.0 ], [ 106.881651838768434, -6.278867627969106, 0.0 ], [ 106.881641482286838, -6.27880532903798, 0.0 ], [ 106.881604064674633, -6.278739831792023, 0.0 ], [ 106.881567424243869, -6.278675366086686, 0.0 ], [ 106.881530782920251, -6.278610900379171, 0.0 ], [ 106.881512324314258, -6.27852829185814, 0.0 ], [ 106.881502767854585, -6.278444185716915, 0.0 ], [ 106.881501556456257, -6.278379087221126, 0.0 ], [ 106.881500345961072, -6.278313987817725, 0.0 ], [ 106.881499134568301, -6.278248889321493, 0.0 ], [ 106.881497534597457, -6.278178997548912, 0.0 ], [ 106.881495934629868, -6.278109105776104, 0.0 ], [ 106.881494334665504, -6.278039214002872, 0.0 ], [ 106.881487154955835, -6.277991434127702, 0.0 ], [ 106.881479974345226, -6.277943654255193, 0.0 ], [ 106.881432058899662, -6.277894731489305, 0.0 ], [ 106.881354307512595, -6.277878616112122, 0.0 ], [ 106.881294469783555, -6.277866571892519, 0.0 ], [ 106.881234631151614, -6.277854527668573, 0.0 ], [ 106.881174793424123, -6.277842483433693, 0.0 ], [ 106.881128856329667, -6.277786365576683, 0.0 ], [ 106.881126741095414, -6.277724197025549, 0.0 ], [ 106.881124625864032, -6.277662028474266, 0.0 ], [ 106.881123115970865, -6.277591534200469, 0.0 ], [ 106.881121606981282, -6.277521039019006, 0.0 ], [ 106.881120097094637, -6.277450544744585, 0.0 ], [ 106.881116607921555, -6.277370610184902, 0.0 ], [ 106.881113117846184, -6.277290674723681, 0.0 ], [ 106.881109923503701, -6.277203005962377, 0.0 ], [ 106.88112350321245, -6.277154106281939, 0.0 ], [ 106.88113708292326, -6.277105207505915, 0.0 ], [ 106.88115390112543, -6.27705204580959, 0.0 ], [ 106.88117071932237, -6.276998883209629, 0.0 ], [ 106.881197117871565, -6.276929522808289, 0.0 ], [ 106.881220214901347, -6.276851144588165, 0.0 ], [ 106.881226465654507, -6.276800982840618, 0.0 ], [ 106.881232715507693, -6.276750822000539, 0.0 ], [ 106.881239781951635, -6.276698075088081, 0.0 ], [ 106.881246848395875, -6.276645328175808, 0.0 ], [ 106.881257682171864, -6.276579575182587, 0.0 ], [ 106.881266911017349, -6.276498415019904, 0.0 ], [ 106.881256628486241, -6.276447357905256, 0.0 ], [ 106.881228614519742, -6.27640346022023, 0.0 ], [ 106.881167901805298, -6.276358794861768, 0.0 ], [ 106.881144832705857, -6.276336180123679, 0.0 ], [ 106.881118776714231, -6.27631063764828, 0.0 ] ] ] } },
{ "type": "Feature", "properties": { "OBJECTID": 206, "toponimi": "Sal. Phb Tertutup Taman Mini Indonesia Indah", "kewenangan": "Pemprov DKI", "jenis": "Saluran Drainase Tersier", "panjang": "1408", "lebar": "1", "kedalaman": "1", "kota": "Jakarta Timur", "kecamatan": "Makasar", "lebar_min": 1.0, "lebar_max": 1.0, "kedalaman_": 1.0, "kedalaman1": 1.0, "Shape_Leng": 1.4136103204299999 }, "geometry": { "type": "MultiLineString", "coordinates": [ [ [ 106.883799507067536, -6.302009865716008, 0.0 ], [ 106.883779337567034, -6.301694381409477, 0.0 ], [ 106.88375463327661, -6.301378006617281, 0.0 ], [ 106.883740103770791, -6.301118721443101, 0.0 ], [ 106.88372587943995, -6.300943765354914, 0.0 ], [ 106.883626722909597, -6.300588668298781, 0.0 ], [ 106.883567997857369, -6.300387576829241, 0.0 ], [ 106.883500919783287, -6.300132107864175, 0.0 ], [ 106.883444832076847, -6.299908337277865, 0.0 ], [ 106.883319876901311, -6.299435452063084, 0.0 ], [ 106.883253708789496, -6.299180887459748, 0.0 ], [ 106.883156352799574, -6.298822156182621, 0.0 ], [ 106.883075509176237, -6.298518678851923, 0.0 ], [ 106.882990307351022, -6.298263275974786, 0.0 ], [ 106.88286937081601, -6.297899188493407, 0.0 ], [ 106.882777796569883, -6.2976356477218, 0.0 ], [ 106.882696344569894, -6.297414688940917, 0.0 ], [ 106.88258102852771, -6.297101360334227, 0.0 ], [ 106.882421853946241, -6.296688444857973, 0.0 ], [ 106.88221338828285, -6.29617686885582, 0.0 ], [ 106.88208812080741, -6.295868111024729, 0.0 ], [ 106.881908236831976, -6.295429199763976, 0.0 ], [ 106.881759672640015, -6.295068158674691, 0.0 ], [ 106.881613357717285, -6.294702575998996, 0.0 ], [ 106.881502526775662, -6.294438876179599, 0.0 ], [ 106.881299042719576, -6.2939261484008, 0.0 ], [ 106.881233767801135, -6.293730293026568, 0.0 ], [ 106.881152634830514, -6.293534495663004, 0.0 ], [ 106.880990245945725, -6.29303331550144, 0.0 ], [ 106.880873204906919, -6.292541902077283, 0.0 ], [ 106.880815041642123, -6.292294743343345, 0.0 ], [ 106.88075905602517, -6.292048301865917, 0.0 ], [ 106.880680462675784, -6.291563278632066, 0.0 ], [ 106.880637409603636, -6.291284146429138, 0.0 ], [ 106.880583969197886, -6.29093903827304, 0.0 ], [ 106.880499060286141, -6.290512070992754, 0.0 ], [ 106.880445203251085, -6.290252564062333, 0.0 ], [ 106.880789453674723, -6.290234033111987, 0.0 ] ] ] } },
{ "type": "Feature", "properties": { "OBJECTID": 208, "toponimi": "Sal. Phb Sutoyo", "kewenangan": "Pemprov DKI", "jenis": "Saluran Drainase Tersier", "panjang": "467", "lebar": "1 - 1.2", "kedalaman": "1.5", "kota": "Jakarta Timur", "kecamatan": "Makasar", "lebar_min": 1.0, "lebar_max": 1.2, "kedalaman_": 1.5, "kedalaman1": 1.5, "Shape_Leng": 0.4729766521 }, "geometry": { "type": "MultiLineString", "coordinates": [ [ [ 106.874216843427646, -6.251380845765721, 0.0 ], [ 106.875931079114565, -6.249917220978707, 0.0 ], [ 106.876169655337065, -6.249690130368657, 0.0 ], [ 106.876464094908101, -6.249425717879912, 0.0 ], [ 106.876816391693168, -6.249094558121342, 0.0 ], [ 106.877013428260895, -6.248934681588465, 0.0 ], [ 106.877303172099559, -6.248911758755652, 0.0 ], [ 106.877535252499641, -6.248910157099614, 0.0 ] ] ] } },
{ "type": "Feature", "properties": { "OBJECTID": 205, "toponimi": "Sal. Phb Kali Mati (Kec. Makasar)", "kewenangan": "Pemprov DKI", "jenis": "Saluran Drainase Tersier", "panjang": "559", "lebar": "1.5", "kedalaman": "1.5", "kota": "Jakarta Timur", "kecamatan": "Makasar", "lebar_min": 1.5, "lebar_max": 1.5, "kedalaman_": 1.5, "kedalaman1": 1.5, "Shape_Leng": 0.59313878651999996 }, "geometry": { "type": "MultiLineString", "coordinates": [ [ [ 106.882506590625169, -6.267125906704243, 0.0 ], [ 106.882500917992047, -6.267208035940823, 0.0 ], [ 106.882481359978456, -6.267440001740665, 0.0 ], [ 106.882452545355278, -6.267586905522773, 0.0 ], [ 106.882413843320933, -6.267750267667411, 0.0 ], [ 106.882363586662976, -6.267909390183387, 0.0 ], [ 106.882324820042626, -6.268026274172905, 0.0 ], [ 106.882126211676336, -6.267975731339471, 0.0 ], [ 106.88208533526155, -6.268087347225218, 0.0 ], [ 106.881918609805695, -6.268052116349502, 0.0 ], [ 106.881742408246865, -6.268009454817058, 0.0 ], [ 106.881696642596566, -6.268005638139342, 0.0 ], [ 106.881660845537368, -6.268008254826509, 0.0 ], [ 106.881636040419039, -6.268025263097698, 0.0 ], [ 106.881622153228719, -6.268035763033976, 0.0 ], [ 106.881613699590801, -6.268035793375116, 0.0 ], [ 106.881425464911629, -6.267965805577144, 0.0 ], [ 106.881332879037146, -6.267941753977528, 0.0 ], [ 106.881182612082384, -6.267919900260073, 0.0 ], [ 106.881148264884033, -6.267910567966936, 0.0 ], [ 106.881059308222618, -6.267865976508497, 0.0 ], [ 106.880967459686872, -6.267832094142462, 0.0 ], [ 106.880778385402252, -6.267805402211338, 0.0 ], [ 106.880739092682077, -6.267804050426286, 0.0 ], [ 106.880664960263957, -6.267794861721546, 0.0 ], [ 106.880507132884375, -6.267744669190602, 0.0 ], [ 106.88051383718431, -6.267672489003248, 0.0 ], [ 106.8802824421292, -6.267632015797916, 0.0 ], [ 106.88023448546106, -6.26757197447751, 0.0 ], [ 106.880211090976218, -6.267566086500704, 0.0 ], [ 106.880153848935734, -6.267551860727444, 0.0 ], [ 106.880105081040384, -6.267543078250041, 0.0 ], [ 106.880089094604756, -6.267522732651257, 0.0 ], [ 106.880094315209178, -6.267453045074545, 0.0 ], [ 106.88008478209953, -6.267429690848506, 0.0 ], [ 106.880063824301402, -6.26740986125778, 0.0 ], [ 106.879807862729706, -6.267387664565792, 0.0 ], [ 106.879786160762578, -6.267430264297832, 0.0 ], [ 106.879761116735779, -6.267556705595347, 0.0 ], [ 106.879688464688556, -6.267950599940262, 0.0 ], [ 106.879665452617871, -6.267966476047155, 0.0 ], [ 106.879585260074592, -6.267949754788862, 0.0 ], [ 106.87930326081316, -6.267860861182897, 0.0 ], [ 106.878811509166212, -6.2676864564296, 0.0 ] ] ] } },
{ "type": "Feature", "properties": { "OBJECTID": 1134, "toponimi": "Sal. Phb Asrama Haji", "kewenangan": "Pemprov DKI", "jenis": "Saluran Drainase Tersier", "panjang": "2838", "lebar": "3 - 4", "kedalaman": "2", "kota": "Jakarta Timur", "kecamatan": "Makasar", "lebar_min": 3.0, "lebar_max": 4.0, "kedalaman_": 2.0, "kedalaman1": 2.0, "Shape_Leng": 0.53291131796000002 }, "geometry": { "type": "MultiLineString", "coordinates": [ [ [ 106.888474751835744, -6.291795244895445, 0.0 ], [ 106.88840286422159, -6.29181607760178, 0.0 ], [ 106.888330977505689, -6.291836911200753, 0.0 ], [ 106.888259089874509, -6.29185774389065, 0.0 ], [ 106.888185761325957, -6.291876667717877, 0.0 ], [ 106.888112432772402, -6.291895592440399, 0.0 ], [ 106.888039104207408, -6.291914516250137, 0.0 ], [ 106.887999373779664, -6.291866480070975, 0.0 ], [ 106.887978943910255, -6.291807574171674, 0.0 ], [ 106.887980393228503, -6.291745238442447, 0.0 ], [ 106.887986560292546, -6.291713948285516, 0.0 ], [ 106.88799737847566, -6.291664465395091, 0.0 ], [ 106.888008196661161, -6.29161498340918, 0.0 ], [ 106.888012417949227, -6.291564332708615, 0.0 ], [ 106.888014418595844, -6.291513545372571, 0.0 ], [ 106.888012235418927, -6.291424923157019, 0.0 ], [ 106.888005172816165, -6.291336555462409, 0.0 ], [ 106.887992411476603, -6.291256521929343, 0.0 ], [ 106.887973040624274, -6.291177828711187, 0.0 ], [ 106.887953224103697, -6.291125612122347, 0.0 ], [ 106.887919139633041, -6.29108137821299, 0.0 ], [ 106.887865486455951, -6.291053823166812, 0.0 ], [ 106.887821219810718, -6.290977432338042, 0.0 ], [ 106.887804819155576, -6.290914264203689, 0.0 ], [ 106.887795836851197, -6.290833512670818, 0.0 ], [ 106.887801559516021, -6.290767217633398, 0.0 ], [ 106.887807885080889, -6.290700977378163, 0.0 ], [ 106.887799214488723, -6.290627223664298, 0.0 ], [ 106.887790543898603, -6.290553469045134, 0.0 ], [ 106.887741237918647, -6.290516876750514, 0.0 ], [ 106.887691931041289, -6.29048028445234, 0.0 ], [ 106.887646419671128, -6.290437788865582, 0.0 ], [ 106.887600908308229, -6.290395293272446, 0.0 ], [ 106.887555396952635, -6.290352797673095, 0.0 ], [ 106.887504845162141, -6.290295232893537, 0.0 ], [ 106.887454294286812, -6.290237668102407, 0.0 ], [ 106.887403742519354, -6.290180103306112, 0.0 ], [ 106.887353190763591, -6.290122538501573, 0.0 ], [ 106.887297888959054, -6.290055001003243, 0.0 ], [ 106.887242588073349, -6.289987463491452, 0.0 ], [ 106.88718728629911, -6.289919925972529, 0.0 ], [ 106.887145949695267, -6.289859410186349, 0.0 ], [ 106.88710461219857, -6.289798894397066, 0.0 ], [ 106.887063275619454, -6.289738379502445, 0.0 ], [ 106.887021938144144, -6.289677863700661, 0.0 ], [ 106.886894886365141, -6.289474601644992, 0.0 ], [ 106.886794451147239, -6.289203209560584, 0.0 ], [ 106.886774158587897, -6.288900422908677, 0.0 ], [ 106.886783168182433, -6.288819946288622, 0.0 ], [ 106.886792177777934, -6.288739469668973, 0.0 ], [ 106.886808288084467, -6.288659060537904, 0.0 ], [ 106.886824398386281, -6.28857865050348, 0.0 ], [ 106.886840507786303, -6.288498241377111, 0.0 ], [ 106.886856618085318, -6.288417831344137, 0.0 ], [ 106.886872728386166, -6.288337422216124, 0.0 ], [ 106.886884348983244, -6.288283647193289, 0.0 ], [ 106.886895968676015, -6.288229872174063, 0.0 ], [ 106.886912721588473, -6.288186339710629, 0.0 ], [ 106.886927794318922, -6.288142196690169, 0.0 ], [ 106.886933081028317, -6.28808550517756, 0.0 ], [ 106.886926171936622, -6.288057888742975, 0.0 ] ] ] } },
{ "type": "Feature", "properties": { "OBJECTID": 204, "toponimi": "Sal. Phb Mawar (Kec. Makasar)", "kewenangan": "Pemprov DKI", "jenis": "Saluran Drainase Tersier", "panjang": "214", "lebar": "1", "kedalaman": "1", "kota": "Jakarta Timur", "kecamatan": "Makasar", "lebar_min": 1.0, "lebar_max": 1.0, "kedalaman_": 1.0, "kedalaman1": 1.0, "Shape_Leng": 0.22073704107 }, "geometry": { "type": "MultiLineString", "coordinates": [ [ [ 106.879543619312514, -6.25959730576225, 0.0 ], [ 106.87977295837517, -6.259751379978293, 0.0 ], [ 106.879797711457456, -6.259775972686089, 0.0 ], [ 106.879808898943224, -6.259812527888439, 0.0 ], [ 106.879815764372367, -6.259829524734757, 0.0 ], [ 106.879872860515007, -6.259860810728159, 0.0 ], [ 106.879926576141017, -6.259898065326133, 0.0 ], [ 106.879685476223898, -6.26026063462809, 0.0 ], [ 106.879646156596337, -6.260304661725336, 0.0 ], [ 106.8799320875098, -6.260487839149817, 0.0 ], [ 106.880204899902949, -6.260668991052989, 0.0 ], [ 106.880305126160209, -6.260735334370021, 0.0 ], [ 106.880461231303272, -6.260857112183627, 0.0 ] ] ] } },
{ "type": "Feature", "properties": { "OBJECTID": 196, "toponimi": "Sal. Phb Asrama Haji", "kewenangan": "Pemprov DKI", "jenis": "Saluran Drainase Tersier", "panjang": "2838", "lebar": "3 - 4", "kedalaman": "2", "kota": "Jakarta Timur", "kecamatan": "Makasar", "lebar_min": 3.0, "lebar_max": 4.0, "kedalaman_": 2.0, "kedalaman1": 2.0, "Shape_Leng": 2.3386961882300001 }, "geometry": { "type": "MultiLineString", "coordinates": [ [ [ 106.888967913853335, -6.290348160584212, 0.0 ], [ 106.88999274565505, -6.29015108405186, 0.0 ], [ 106.890057122271358, -6.290103006847603, 0.0 ], [ 106.89007357234523, -6.290024005174438, 0.0 ], [ 106.890056180110619, -6.289842260258353, 0.0 ], [ 106.889997834391224, -6.289574544262585, 0.0 ], [ 106.889942666113143, -6.289524507155365, 0.0 ], [ 106.889827858927717, -6.289510569215813, 0.0 ], [ 106.889612613991943, -6.289489818343627, 0.0 ], [ 106.889186898128088, -6.289445905799765, 0.0 ], [ 106.888493039083102, -6.289297704898307, 0.0 ], [ 106.887920736107674, -6.28904619888127, 0.0 ], [ 106.887355511266321, -6.288768352411269, 0.0 ], [ 106.88719445165232, -6.288524929250568, 0.0 ], [ 106.886926171936622, -6.288057888742975, 0.0 ], [ 106.886919262846135, -6.288030272308139, 0.0 ], [ 106.886897125768925, -6.287964906934135, 0.0 ], [ 106.886874989603015, -6.287899541554254, 0.0 ], [ 106.886852852541239, -6.287834176174773, 0.0 ], [ 106.886832036479092, -6.287771298738861, 0.0 ], [ 106.886811219517327, -6.287708420399465, 0.0 ], [ 106.886790403469348, -6.287645542958582, 0.0 ], [ 106.886772154834745, -6.287582997107793, 0.0 ], [ 106.886753905306222, -6.287520452162261, 0.0 ], [ 106.886735656684422, -6.287457906307373, 0.0 ], [ 106.886711228913555, -6.287376961796485, 0.0 ], [ 106.886686801153772, -6.28729601728204, 0.0 ], [ 106.886668369614185, -6.287233356349823, 0.0 ], [ 106.886649938981336, -6.287170694508188, 0.0 ], [ 106.886631507454695, -6.287108033571696, 0.0 ], [ 106.886607267895826, -6.287023389526909, 0.0 ], [ 106.886583028351822, -6.286938746382487, 0.0 ], [ 106.886564634619333, -6.286880547236049, 0.0 ], [ 106.886546241799394, -6.286822348988419, 0.0 ], [ 106.886518580180436, -6.286739407120129, 0.0 ], [ 106.886490918576897, -6.286656466151627, 0.0 ], [ 106.886470985972778, -6.286592228368519, 0.0 ], [ 106.886451054282446, -6.286527991483868, 0.0 ], [ 106.88643112169234, -6.286463753696046, 0.0 ], [ 106.886410690984619, -6.286397693147352, 0.0 ], [ 106.886390260284372, -6.286331632596291, 0.0 ], [ 106.886369829591601, -6.286265572042581, 0.0 ], [ 106.886347751855027, -6.286196558177021, 0.0 ], [ 106.886325675033632, -6.286127545209417, 0.0 ], [ 106.886303597313685, -6.286058531338097, 0.0 ], [ 106.886284404507435, -6.285995210374889, 0.0 ], [ 106.88626521170778, -6.285931889409425, 0.0 ], [ 106.886246018915003, -6.28586856844174, 0.0 ], [ 106.886230431770315, -6.28580558346112, 0.0 ], [ 106.886214845531782, -6.285742597571399, 0.0 ], [ 106.886199258398875, -6.285679612587335, 0.0 ], [ 106.886188229278062, -6.285611441279873, 0.0 ], [ 106.886177199262434, -6.285543270878573, 0.0 ], [ 106.886166170152606, -6.285475099568591, 0.0 ], [ 106.886155293744096, -6.285393634123103, 0.0 ], [ 106.886144417342706, -6.285312168676136, 0.0 ], [ 106.886132536897179, -6.285241693065761, 0.0 ], [ 106.886120655550826, -6.285171216553231, 0.0 ], [ 106.886108775117364, -6.285100740940075, 0.0 ], [ 106.886097280942494, -6.285035397644334, 0.0 ], [ 106.88608578767662, -6.284970054344133, 0.0 ], [ 106.886074293512394, -6.28490471104586, 0.0 ], [ 106.88605893462146, -6.284820536677067, 0.0 ], [ 106.886043574838979, -6.284736363213459, 0.0 ], [ 106.88602821596578, -6.284652188840295, 0.0 ], [ 106.886015713161115, -6.284580503008378, 0.0 ], [ 106.886003209458977, -6.284508817178247, 0.0 ], [ 106.885990706666874, -6.284437131343328, 0.0 ], [ 106.885981802213749, -6.284365511189143, 0.0 ], [ 106.885975942637273, -6.284293577165014, 0.0 ], [ 106.885973137441326, -6.284221459433319, 0.0 ], [ 106.885975680753631, -6.284157663112475, 0.0 ], [ 106.885982796577721, -6.284094213765444, 0.0 ], [ 106.885994448147329, -6.284031440632501, 0.0 ], [ 106.886018273037209, -6.283965451870254, 0.0 ], [ 106.886047600782618, -6.283901720793364, 0.0 ], [ 106.886082218878101, -6.283840704759054, 0.0 ], [ 106.886116919615006, -6.283782815850258, 0.0 ], [ 106.886151137699869, -6.283724640261122, 0.0 ], [ 106.886184870435159, -6.283666181617927, 0.0 ], [ 106.886204757613271, -6.283612025990188, 0.0 ], [ 106.886189670646885, -6.283571711415915, 0.0 ], [ 106.886162081209164, -6.283524757617521, 0.0 ], [ 106.886134491777099, -6.283477803816059, 0.0 ], [ 106.886105165945352, -6.283426164686275, 0.0 ], [ 106.886075841027477, -6.283374526453955, 0.0 ], [ 106.886046636842337, -6.283323040582537, 0.0 ], [ 106.886017433570743, -6.283271555608606, 0.0 ], [ 106.88599025740757, -6.283234469000399, 0.0 ], [ 106.885963081251816, -6.28319738329377, 0.0 ], [ 106.885929800002472, -6.283158414573609, 0.0 ], [ 106.885896518758301, -6.283119445849877, 0.0 ], [ 106.885860029678554, -6.283080699353939, 0.0 ], [ 106.885826380293679, -6.283033592871602, 0.0 ], [ 106.885792730015027, -6.282986487292678, 0.0 ], [ 106.885758566963204, -6.282933988548104, 0.0 ], [ 106.885724403915845, -6.28288148889512, 0.0 ], [ 106.885688837424766, -6.28282241486196, 0.0 ], [ 106.885654809971911, -6.282760892285938, 0.0 ], [ 106.885620783428791, -6.282699368797701, 0.0 ], [ 106.885591403809912, -6.282629247348252, 0.0 ], [ 106.885567828293986, -6.282556964869284, 0.0 ], [ 106.885556305342774, -6.282471020764324, 0.0 ], [ 106.885551787369735, -6.282384424836755, 0.0 ], [ 106.885560183880514, -6.282302210839727, 0.0 ], [ 106.885571637656767, -6.282220367370285, 0.0 ], [ 106.885580613793223, -6.282133251743304, 0.0 ], [ 106.885587146754887, -6.282045918888125, 0.0 ], [ 106.885590376414427, -6.281991773596016, 0.0 ], [ 106.885591059440884, -6.281937537123818, 0.0 ], [ 106.885579089300265, -6.281899544855314, 0.0 ], [ 106.885547515968597, -6.281844012380481, 0.0 ], [ 106.885508777119782, -6.281793224442038, 0.0 ], [ 106.885455796116076, -6.281738966199526, 0.0 ], [ 106.885395096788969, -6.281693520403088, 0.0 ], [ 106.885318894350348, -6.281645983132138, 0.0 ], [ 106.885237360193642, -6.281608328338868, 0.0 ], [ 106.885169836378324, -6.28158630447297, 0.0 ], [ 106.885106629579951, -6.28155389815382, 0.0 ], [ 106.885043639342285, -6.281520402457828, 0.0 ], [ 106.884984794513471, -6.281480058313115, 0.0 ], [ 106.884935632710111, -6.281429221969007, 0.0 ], [ 106.884888671933723, -6.281376344272634, 0.0 ], [ 106.884840391140813, -6.281309435429484, 0.0 ], [ 106.884794229360338, -6.281241045193121, 0.0 ], [ 106.884768354239583, -6.281164186909709, 0.0 ], [ 106.884747410058282, -6.281085839820467, 0.0 ], [ 106.884730402234425, -6.281009342888312, 0.0 ], [ 106.884713393518524, -6.280932846861237, 0.0 ], [ 106.884701572968211, -6.280857543692907, 0.0 ], [ 106.884689753327947, -6.280782240519886, 0.0 ], [ 106.88468374124254, -6.280724325675742, 0.0 ], [ 106.884677729160444, -6.280666410830959, 0.0 ], [ 106.884668213949269, -6.28062031850406, 0.0 ], [ 106.884658697840678, -6.280574227083879, 0.0 ], [ 106.884646054668366, -6.280495549902046, 0.0 ], [ 106.884633411503259, -6.280416872718646, 0.0 ], [ 106.884629962411267, -6.280367359869848, 0.0 ], [ 106.884626513321308, -6.280317847020759, 0.0 ], [ 106.88462833501525, -6.28023422271169, 0.0 ], [ 106.884630001828071, -6.280184907525934, 0.0 ], [ 106.884631667738432, -6.280135592343346, 0.0 ], [ 106.884637902941009, -6.280075188582966, 0.0 ], [ 106.884644138144125, -6.280014784822742, 0.0 ], [ 106.884651170598431, -6.279940897436926, 0.0 ], [ 106.884658203057356, -6.279867010955505, 0.0 ], [ 106.884664948104174, -6.279794862365949, 0.0 ], [ 106.88467169315544, -6.279722714680854, 0.0 ], [ 106.884679015406277, -6.279642475560414, 0.0 ], [ 106.884686336751727, -6.279562235539435, 0.0 ], [ 106.884693659005407, -6.279481996419737, 0.0 ], [ 106.88469728706589, -6.279393118871665, 0.0 ], [ 106.884690258112073, -6.279304445161444, 0.0 ], [ 106.884679471959146, -6.279230059571888, 0.0 ], [ 106.884668685815583, -6.27915567488524, 0.0 ], [ 106.88465790057846, -6.2790812892898, 0.0 ], [ 106.88464711444729, -6.279006904600408, 0.0 ], [ 106.884636328318877, -6.278932519005549, 0.0 ], [ 106.884621954803634, -6.278857833494405, 0.0 ], [ 106.884607580392071, -6.278783147984639, 0.0 ], [ 106.884593206891083, -6.278708462469799, 0.0 ], [ 106.884572662817178, -6.278620955836273, 0.0 ], [ 106.884552117847392, -6.278533448298734, 0.0 ], [ 106.884534765540849, -6.27846612598495, 0.0 ], [ 106.884517413237973, -6.278398802764894, 0.0 ], [ 106.8845000609452, -6.278331480446945, 0.0 ], [ 106.884475280415813, -6.278255639825605, 0.0 ], [ 106.884450499896545, -6.27817979920074, 0.0 ], [ 106.884416446936342, -6.278101218951135, 0.0 ], [ 106.884375373775825, -6.278026073488542, 0.0 ], [ 106.884342951889479, -6.277974658631968, 0.0 ], [ 106.884308930815436, -6.277924288387526, 0.0 ], [ 106.884273344167838, -6.277875013265749, 0.0 ], [ 106.88423843564226, -6.277825606406115, 0.0 ], [ 106.884203527120874, -6.277776198637897, 0.0 ], [ 106.884168618609948, -6.277726791769489, 0.0 ], [ 106.884135547560334, -6.277679779684593, 0.0 ], [ 106.884102475613687, -6.277632767598953, 0.0 ], [ 106.884064976342117, -6.277599638272927, 0.0 ], [ 106.884020171847197, -6.277577376804166, 0.0 ], [ 106.883979599184812, -6.277557228450893, 0.0 ], [ 106.883948617690535, -6.277524167877609, 0.0 ], [ 106.883931242482618, -6.277478086605171, 0.0 ], [ 106.883913866378606, -6.277432006238477, 0.0 ], [ 106.883886320811669, -6.277360622975839, 0.0 ], [ 106.883858775258119, -6.277289240613481, 0.0 ], [ 106.883829447002441, -6.277217620543953, 0.0 ], [ 106.883800118757279, -6.277146000470146, 0.0 ], [ 106.883771139529998, -6.277083997402678, 0.0 ], [ 106.883742160314682, -6.277021995235493, 0.0 ], [ 106.883712080625429, -6.276951716888299, 0.0 ], [ 106.883682000943281, -6.276881437632556, 0.0 ], [ 106.8836527600278, -6.27681851597824, 0.0 ], [ 106.883623518220801, -6.276755595227392, 0.0 ], [ 106.883594049944165, -6.27669376929987, 0.0 ], [ 106.883564582579822, -6.2766319433652, 0.0 ], [ 106.883540619324549, -6.276556902569622, 0.0 ], [ 106.883516656082307, -6.276481862674851, 0.0 ], [ 106.883497890120026, -6.276408049988265, 0.0 ], [ 106.883479123262418, -6.276334237302528, 0.0 ], [ 106.883466125060721, -6.276267776240982, 0.0 ], [ 106.883453125964465, -6.276201316085483, 0.0 ], [ 106.883442435444408, -6.276123267366295, 0.0 ], [ 106.883431745831103, -6.276045217738389, 0.0 ], [ 106.883425704679311, -6.275973582554429, 0.0 ], [ 106.883423353864998, -6.275901730663503, 0.0 ], [ 106.883424698589863, -6.275829852821465, 0.0 ], [ 106.883427257938195, -6.275781174525298, 0.0 ], [ 106.883431163036576, -6.275732586323576, 0.0 ], [ 106.883412184310842, -6.275682531636263, 0.0 ], [ 106.883393204689625, -6.275632477854432, 0.0 ], [ 106.883370275790952, -6.275571174466728, 0.0 ], [ 106.883347345992803, -6.275509870175418, 0.0 ], [ 106.883324417108511, -6.275448566782189, 0.0 ], [ 106.883298006662613, -6.27537793068922, 0.0 ], [ 106.883271596229548, -6.27530729549677, 0.0 ], [ 106.883242233424937, -6.275228750628444, 0.0 ], [ 106.883182826654462, -6.275183390051125, 0.0 ], [ 106.883112766418833, -6.275181214369835, 0.0 ], [ 106.883042986271406, -6.27518783950176, 0.0 ], [ 106.882987709847214, -6.275194081556728, 0.0 ], [ 106.882932432513115, -6.275200322705349, 0.0 ], [ 106.882868405173639, -6.275209898143573, 0.0 ], [ 106.882804378733042, -6.275219473571527, 0.0 ], [ 106.882733175089399, -6.275231035882546, 0.0 ], [ 106.882661971442928, -6.275242599089011, 0.0 ], [ 106.88259710830495, -6.275250924359692, 0.0 ], [ 106.882532245165763, -6.275259250527043, 0.0 ], [ 106.882465297323151, -6.27526829031686, 0.0 ], [ 106.882398348572281, -6.275277330101912, 0.0 ], [ 106.882322616287667, -6.275284897862188, 0.0 ], [ 106.882246883997496, -6.275292465612139, 0.0 ], [ 106.882169942220713, -6.275298384925088, 0.0 ], [ 106.882105226281965, -6.275291844590649, 0.0 ], [ 106.88204051033938, -6.275285303343626, 0.0 ], [ 106.88197579439904, -6.275278762992277, 0.0 ], [ 106.881913949151908, -6.275272231302818, 0.0 ], [ 106.881852103000654, -6.275265699608767, 0.0 ], [ 106.8817902577523, -6.275259167903764, 0.0 ], [ 106.881744726756821, -6.275253944631983, 0.0 ], [ 106.881699195764412, -6.275248722260014, 0.0 ], [ 106.881647886624705, -6.275224175592029, 0.0 ], [ 106.881602977357502, -6.275189259807736, 0.0 ] ] ] } },
{ "type": "Feature", "properties": { "OBJECTID": 211, "toponimi": "Sal. Phb Batu Tumbuh", "kewenangan": "Pemprov DKI", "jenis": "Saluran Drainase Tersier", "panjang": "925", "lebar": "2.5 - 3", "kedalaman": "3", "kota": "Jakarta Timur", "kecamatan": "Kramat Jati", "lebar_min": 2.5, "lebar_max": 3.0, "kedalaman_": 3.0, "kedalaman1": 3.0, "Shape_Leng": 0.99431255674999997 }, "geometry": { "type": "MultiLineString", "coordinates": [ [ [ 106.872643815807791, -6.27130898602513, 0.0 ], [ 106.872819513169745, -6.2712376730787, 0.0 ] ] ] } },
{ "type": "Feature", "properties": { "OBJECTID": 202, "toponimi": "Sal. Phb Arafat", "kewenangan": "Pemprov DKI", "jenis": "Saluran Drainase Tersier", "panjang": "470", "lebar": "4", "kedalaman": "2", "kota": "Jakarta Timur", "kecamatan": "Makasar", "lebar_min": 4.0, "lebar_max": 4.0, "kedalaman_": 2.0, "kedalaman1": 2.0, "Shape_Leng": 0.48035376981 }, "geometry": { "type": "MultiLineString", "coordinates": [ [ [ 106.872803675836721, -6.255585867512949, 0.0 ], [ 106.872975660211836, -6.255363978424925, 0.0 ], [ 106.873383146070537, -6.254872769022346, 0.0 ], [ 106.873473515671961, -6.254749122738165, 0.0 ], [ 106.87355777073013, -6.25472994003551, 0.0 ], [ 106.873748096341671, -6.254756860369157, 0.0 ], [ 106.873808010077724, -6.254791005206276, 0.0 ], [ 106.873876066802154, -6.254839419186349, 0.0 ], [ 106.873888723618435, -6.254899012550283, 0.0 ], [ 106.873901379539205, -6.254958606820335, 0.0 ], [ 106.873906567946534, -6.254979475037056, 0.0 ], [ 106.87393322275436, -6.255013014263422, 0.0 ], [ 106.873965108345942, -6.255025291870285, 0.0 ], [ 106.87465980218434, -6.254990349864655, 0.0 ], [ 106.874696206899685, -6.2550093571415, 0.0 ], [ 106.874730208910478, -6.255048596059467, 0.0 ], [ 106.874754841654351, -6.255094311366344, 0.0 ], [ 106.874772177787293, -6.255148763269086, 0.0 ], [ 106.874781055742829, -6.255205217302314, 0.0 ], [ 106.874784062588205, -6.255243961049626, 0.0 ], [ 106.874800540655016, -6.25530609945736, 0.0 ], [ 106.874820420574039, -6.255358603783526, 0.0 ], [ 106.874831523440349, -6.255413639401748, 0.0 ], [ 106.874840397346063, -6.255488724309275, 0.0 ], [ 106.874845630387128, -6.255533001628807, 0.0 ], [ 106.874850587202815, -6.255627541496246, 0.0 ], [ 106.874969141513631, -6.25564199155991, 0.0 ], [ 106.874999998368807, -6.255647525104689, 0.0 ], [ 106.875028218996633, -6.255652388138806, 0.0 ], [ 106.875064759292101, -6.255661000809242, 0.0 ], [ 106.875060473942526, -6.255695518372918, 0.0 ], [ 106.875060691685547, -6.255718072457666, 0.0 ], [ 106.875066396977616, -6.255789629827426, 0.0 ], [ 106.875148189104507, -6.255851072123887, 0.0 ], [ 106.875167961852, -6.255866908200975, 0.0 ], [ 106.875182695591306, -6.255878708973606, 0.0 ], [ 106.875213213233195, -6.255918343629652, 0.0 ], [ 106.875208169145964, -6.256025150481894, 0.0 ], [ 106.875365056824208, -6.256034621860349, 0.0 ], [ 106.875519570632775, -6.256039970618157, 0.0 ], [ 106.875676432136089, -6.256042360713683, 0.0 ], [ 106.875710760830543, -6.256043444255332, 0.0 ], [ 106.875753816958976, -6.256044803133232, 0.0 ] ] ] } },
{ "type": "Feature", "properties": { "OBJECTID": 207, "toponimi": "Sal. Phb H. Sulaeman", "kewenangan": "Pemprov DKI", "jenis": "Saluran Drainase Tersier", "panjang": "202", "lebar": "1.5", "kedalaman": "1.5", "kota": "Jakarta Timur", "kecamatan": "Makasar", "lebar_min": 1.5, "lebar_max": 1.5, "kedalaman_": 1.5, "kedalaman1": 1.5, "Shape_Leng": 0.20895650204 }, "geometry": { "type": "MultiLineString", "coordinates": [ [ [ 106.887853041023106, -6.241061764999789, 0.0 ], [ 106.887931461588764, -6.240544258892382, 0.0 ], [ 106.887971566560182, -6.23999688535454, 0.0 ], [ 106.888142168684283, -6.239527786593076, 0.0 ] ] ] } },
{ "type": "Feature", "properties": { "OBJECTID": 276, "toponimi": "Sal. Phb Lubang Buaya/TMII", "kewenangan": "Pemprov DKI", "jenis": "Saluran Drainase Tersier", "panjang": "2629", "lebar": "1.5 - 2.5", "kedalaman": "1.5 - 2.5", "kota": "Jakarta Timur", "kecamatan": "Cipayung", "lebar_min": 1.5, "lebar_max": 2.5, "kedalaman_": 1.5, "kedalaman1": 2.5, "Shape_Leng": 2.6803527406100001 }, "geometry": { "type": "MultiLineString", "coordinates": [ [ [ 106.894857839064457, -6.298755962745692, 0.0 ], [ 106.894808119446338, -6.298681162410163, 0.0 ], [ 106.894736540232415, -6.298626935501798, 0.0 ], [ 106.894689799431646, -6.298554013068712, 0.0 ], [ 106.894692088618342, -6.298467412024157, 0.0 ], [ 106.894711788739826, -6.298420470070398, 0.0 ], [ 106.894731488858767, -6.298373528116878, 0.0 ], [ 106.894739428494447, -6.298360218430114, 0.0 ], [ 106.894772034009137, -6.298319765611955, 0.0 ], [ 106.894774710712639, -6.298310345381671, 0.0 ] ] ] } },
{ "type": "Feature", "properties": { "OBJECTID": 195, "toponimi": "Sal. Phb Taman Mini Indonesia Indah", "kewenangan": "Pemprov DKI", "jenis": "Saluran Drainase Tersier", "panjang": "1508", "lebar": "1 - 1.2", "kedalaman": "2", "kota": "Jakarta Timur", "kecamatan": "Makasar", "lebar_min": 1.0, "lebar_max": 1.2, "kedalaman_": 2.0, "kedalaman1": 2.0, "Shape_Leng": 1.5431142388800001 }, "geometry": { "type": "MultiLineString", "coordinates": [ [ [ 106.885518589295657, -6.301851079946845, 0.0 ], [ 106.88427058066388, -6.301853198469818, 0.0 ], [ 106.88420113537218, -6.301822350542811, 0.0 ], [ 106.884153146404657, -6.301774679479912, 0.0 ], [ 106.884092547526819, -6.301545246496111, 0.0 ], [ 106.883888940322421, -6.300775689601874, 0.0 ], [ 106.883702303603414, -6.300070660318095, 0.0 ], [ 106.883484172259401, -6.299250919403326, 0.0 ], [ 106.883302448447878, -6.298581755468009, 0.0 ], [ 106.883130752913999, -6.298041734419827, 0.0 ], [ 106.882968897515042, -6.297578229600441, 0.0 ], [ 106.882737191917826, -6.296971443149907, 0.0 ], [ 106.882536904308139, -6.296457838846814, 0.0 ], [ 106.882179820293629, -6.295557261643994, 0.0 ], [ 106.881861386118018, -6.294766586805057, 0.0 ], [ 106.881685249270035, -6.294319877106781, 0.0 ], [ 106.881519914217535, -6.293900437064064, 0.0 ], [ 106.881436087344767, -6.293670966547734, 0.0 ], [ 106.881325753518382, -6.293379305078601, 0.0 ], [ 106.881210984847897, -6.293008760373965, 0.0 ], [ 106.881119883685429, -6.292679656735118, 0.0 ], [ 106.881052482082552, -6.29240168107094, 0.0 ], [ 106.881014485582625, -6.292221876230879, 0.0 ], [ 106.880966590306627, -6.291982587273893, 0.0 ], [ 106.880881242614649, -6.291429048952629, 0.0 ], [ 106.880875502014902, -6.291396639808861, 0.0 ], [ 106.880862974022733, -6.291316880703514, 0.0 ], [ 106.880850446941494, -6.291237121593195, 0.0 ], [ 106.880837918960779, -6.291157361580312, 0.0 ], [ 106.880825391894234, -6.291077602466705, 0.0 ], [ 106.880812863931496, -6.290997843354665, 0.0 ], [ 106.880801125922261, -6.290924923050256, 0.0 ], [ 106.880789387919336, -6.290852002744263, 0.0 ], [ 106.880777649922535, -6.290779082436957, 0.0 ], [ 106.880765911932016, -6.290706162128203, 0.0 ], [ 106.880754169074123, -6.290631886524488, 0.0 ], [ 106.880742426219456, -6.290557610015172, 0.0 ], [ 106.880730683374466, -6.290483334408561, 0.0 ], [ 106.880727064395046, -6.290415722024552, 0.0 ], [ 106.880736713360861, -6.290348705625826, 0.0 ], [ 106.880759259126251, -6.290284865166281, 0.0 ], [ 106.880793833135485, -6.29022666123445, 0.0 ], [ 106.880955684785022, -6.289975157046392, 0.0 ] ] ] } },
{ "type": "Feature", "properties": { "OBJECTID": 198, "toponimi": "Sal. Phb Halim Perdanakusuma", "kewenangan": "Pemprov DKI", "jenis": "Saluran Drainase Tersier", "panjang": "1704", "lebar": "4 - 5", "kedalaman": "2", "kota": "Jakarta Timur", "kecamatan": "Makasar", "lebar_min": 4.0, "lebar_max": 5.0, "kedalaman_": 2.0, "kedalaman1": 2.0, "Shape_Leng": 1.73652037188 }, "geometry": { "type": "MultiLineString", "coordinates": [ [ [ 106.890918578253888, -6.264893030132289, 0.0 ], [ 106.890693049633612, -6.26466897558275, 0.0 ], [ 106.890296718812493, -6.26414890274375, 0.0 ], [ 106.890009592766773, -6.263415530062497, 0.0 ], [ 106.889940066173807, -6.263360759112931, 0.0 ], [ 106.889525757309059, -6.263158914009212, 0.0 ], [ 106.889006183861568, -6.262935917193859, 0.0 ], [ 106.888936752929922, -6.262907460714922, 0.0 ], [ 106.88887404616267, -6.262754584794046, 0.0 ], [ 106.888845289975308, -6.262735551283801, 0.0 ], [ 106.888542041897452, -6.262837115463475, 0.0 ], [ 106.888489405644776, -6.262825344046869, 0.0 ], [ 106.88840041958376, -6.26267734732244, 0.0 ], [ 106.887943640379547, -6.261966112335632, 0.0 ], [ 106.887862135459969, -6.261904207916383, 0.0 ], [ 106.887668108618413, -6.261797256187949, 0.0 ], [ 106.887579062858933, -6.261632514724013, 0.0 ], [ 106.886889648454272, -6.260713992342282, 0.0 ], [ 106.885529661813507, -6.25879553924343, 0.0 ], [ 106.88500590185123, -6.25807018670934, 0.0 ], [ 106.884400349121904, -6.25720159407312, 0.0 ], [ 106.883797419811202, -6.256397580874665, 0.0 ], [ 106.883040621457354, -6.255350110525417, 0.0 ], [ 106.882120350545748, -6.254047257943861, 0.0 ], [ 106.881467654599746, -6.25310722054496, 0.0 ] ] ] } },
{ "type": "Feature", "properties": { "OBJECTID": 201, "toponimi": "Sal. Phb Permata (Kec. Makasar)", "kewenangan": "Pemprov DKI", "jenis": "Saluran Drainase Tersier", "panjang": "788", "lebar": "0.8 - 1", "kedalaman": "2", "kota": "Jakarta Timur", "kecamatan": "Makasar", "lebar_min": 0.8, "lebar_max": 1.0, "kedalaman_": 2.0, "kedalaman1": 2.0, "Shape_Leng": 0.86176458747999996 }, "geometry": { "type": "MultiLineString", "coordinates": [ [ [ 106.881202111889337, -6.253336965877789, 0.0 ], [ 106.881081930297682, -6.253191375887189, 0.0 ], [ 106.881081872143454, -6.25317510872828, 0.0 ], [ 106.881054991877107, -6.253145541780028, 0.0 ], [ 106.881010912197553, -6.253119863639797, 0.0 ], [ 106.880985984844983, -6.253101771426424, 0.0 ], [ 106.880974400594255, -6.253071193134125, 0.0 ], [ 106.880971388234599, -6.253031014693015, 0.0 ], [ 106.880947332213395, -6.252988997501303, 0.0 ], [ 106.880900408698153, -6.252970027428105, 0.0 ], [ 106.88087362673518, -6.252968209213291, 0.0 ], [ 106.880795400634369, -6.253020161964378, 0.0 ], [ 106.880287797818852, -6.253333923828137, 0.0 ], [ 106.880031779540843, -6.25340564980145, 0.0 ], [ 106.879884854825079, -6.253499950670342, 0.0 ], [ 106.879838907713733, -6.253486718332761, 0.0 ], [ 106.879741172630958, -6.253431567930345, 0.0 ], [ 106.879635870334681, -6.253399410764117, 0.0 ], [ 106.879448400853192, -6.253386684608186, 0.0 ], [ 106.879295580464955, -6.253436989920622, 0.0 ], [ 106.879014890815697, -6.253562388776411, 0.0 ], [ 106.878921487029245, -6.253648843548556, 0.0 ], [ 106.878910189895464, -6.253698641787518, 0.0 ], [ 106.878892343816432, -6.254056581781816, 0.0 ], [ 106.878912028378338, -6.254213441215703, 0.0 ], [ 106.878863063055988, -6.254426046223807, 0.0 ], [ 106.878735371289608, -6.254550898830709, 0.0 ], [ 106.878567127960167, -6.254566810347418, 0.0 ], [ 106.878345075367292, -6.254510191041203, 0.0 ], [ 106.877755165150759, -6.254269249954251, 0.0 ], [ 106.877684212066129, -6.254215917506754, 0.0 ], [ 106.877624638216616, -6.254135751815422, 0.0 ], [ 106.87750175471237, -6.254000312233366, 0.0 ], [ 106.877411683486599, -6.253948962123315, 0.0 ], [ 106.877314017613728, -6.253912949038054, 0.0 ], [ 106.876994408684666, -6.253850936260753, 0.0 ], [ 106.876680660066782, -6.25382335032344, 0.0 ], [ 106.876611886108819, -6.253844647207858, 0.0 ], [ 106.87654894512788, -6.253892716736915, 0.0 ], [ 106.876512908160095, -6.253977052246028, 0.0 ], [ 106.876467896132638, -6.254226004359465, 0.0 ], [ 106.876435507221956, -6.25426056802924, 0.0 ], [ 106.876394026307551, -6.254427214810653, 0.0 ], [ 106.876390413260538, -6.254486555115535, 0.0 ], [ 106.876483399914449, -6.254819221154442, 0.0 ], [ 106.876529702150066, -6.254931968320317, 0.0 ], [ 106.875977751399219, -6.254937571585311, 0.0 ] ] ] } },
{ "type": "Feature", "properties": { "OBJECTID": 203, "toponimi": "Sal. Phb Tertutup Al-Musawar", "kewenangan": "Pemprov DKI", "jenis": "Saluran Drainase Tersier", "panjang": "301", "lebar": "1.3", "kedalaman": "1", "kota": "Jakarta Timur", "kecamatan": "Makasar", "lebar_min": 1.3, "lebar_max": 1.3, "kedalaman_": 1.0, "kedalaman1": 1.0, "Shape_Leng": 0.30615164186 }, "geometry": { "type": "MultiLineString", "coordinates": [ [ [ 106.877922488584815, -6.260850329767609, 0.0 ], [ 106.877731033962561, -6.260805396080752, 0.0 ], [ 106.877611275548716, -6.260812085730744, 0.0 ], [ 106.877484299386367, -6.260800017539346, 0.0 ], [ 106.877394856718666, -6.260785130649958, 0.0 ], [ 106.877277620242253, -6.260747087612873, 0.0 ], [ 106.877120719715663, -6.26069896683654, 0.0 ], [ 106.876871820388018, -6.260623305585059, 0.0 ], [ 106.876573970292341, -6.260563368721452, 0.0 ], [ 106.876455647061334, -6.260567380306895, 0.0 ], [ 106.876276298658127, -6.260553668132031, 0.0 ], [ 106.876123379310187, -6.26057694048326, 0.0 ], [ 106.875972718358653, -6.260563125660568, 0.0 ], [ 106.875757506749878, -6.260548345296667, 0.0 ], [ 106.875547156874731, -6.260556274108379, 0.0 ], [ 106.875214269777345, -6.260568301533681, 0.0 ] ] ] } },
{ "type": "Feature", "properties": { "OBJECTID": 194, "toponimi": "Sal. Phb Kodam (Kec. Makasar)", "kewenangan": "Pemprov DKI", "jenis": "Saluran Drainase Tersier", "panjang": "1438", "lebar": "1.5 - 3", "kedalaman": "1.5", "kota": "Jakarta Timur", "kecamatan": "Makasar", "lebar_min": 1.5, "lebar_max": 3.0, "kedalaman_": 1.5, "kedalaman1": 1.5, "Shape_Leng": 1.9110448653100001 }, "geometry": { "type": "MultiLineString", "coordinates": [ [ [ 106.91923270540245, -6.25118318165468, 0.0 ], [ 106.919236824516261, -6.251175679255828, 0.0 ], [ 106.919240533566381, -6.251165304442043, 0.0 ], [ 106.919242555893931, -6.251154472874954, 0.0 ], [ 106.919242840995068, -6.251143457784642, 0.0 ], [ 106.919241565645052, -6.251133907649444, 0.0 ], [ 106.919232247025235, -6.251054680661234, 0.0 ], [ 106.919222928415167, -6.250975454575866, 0.0 ], [ 106.919213609808097, -6.250896227585191, 0.0 ], [ 106.919217924779602, -6.250808693444383, 0.0 ], [ 106.919222240661099, -6.250721160204501, 0.0 ], [ 106.91922655563863, -6.250633626063935, 0.0 ], [ 106.919230870622442, -6.25054609282761, 0.0 ], [ 106.919231293574143, -6.250543148356909, 0.0 ], [ 106.91923201998641, -6.250540914324616, 0.0 ], [ 106.919233117418386, -6.250538838967868, 0.0 ], [ 106.919234554461497, -6.250536981169433, 0.0 ], [ 106.9192362879553, -6.250535398046907, 0.0 ], [ 106.91923826746536, -6.25053413408628, 0.0 ], [ 106.919240432601782, -6.250533229289755, 0.0 ], [ 106.919242722015539, -6.250532708292486, 0.0 ], [ 106.919246072520338, -6.250532535125972, 0.0 ], [ 106.919326510486087, -6.250532000951812, 0.0 ], [ 106.919406948451027, -6.250531467669679, 0.0 ], [ 106.919487385508774, -6.250530934378477, 0.0 ], [ 106.919567823462714, -6.250530400167582, 0.0 ], [ 106.919643107477384, -6.250517398802857, 0.0 ], [ 106.919679899524709, -6.250508984476334, 0.0 ], [ 106.919715598419899, -6.250494156662702, 0.0 ], [ 106.919748301831248, -6.250473539826676, 0.0 ], [ 106.919776863332643, -6.250447913894585, 0.0 ], [ 106.919822207969673, -6.250394887751292, 0.0 ], [ 106.919830471949325, -6.250385098451003, 0.0 ], [ 106.919839190755837, -6.250377637418692, 0.0 ], [ 106.919848997457649, -6.250371680493221, 0.0 ], [ 106.919859635120289, -6.250367383218057, 0.0 ], [ 106.919870893584161, -6.250364844006135, 0.0 ], [ 106.919951616839256, -6.250359309797751, 0.0 ], [ 106.920032339185454, -6.250353775580797, 0.0 ], [ 106.920113062429536, -6.250348241348608, 0.0 ], [ 106.920192580425038, -6.250360058037805, 0.0 ], [ 106.920272098420511, -6.250371874713884, 0.0 ], [ 106.920351616416013, -6.250383691376826, 0.0 ], [ 106.920438806803162, -6.250398164343748, 0.0 ], [ 106.920522666957851, -6.250412084501304, 0.0 ] ], [ [ 106.920580228787131, -6.250421638667861, 0.0 ], [ 106.920603590949185, -6.250425516323111, 0.0 ] ], [ [ 106.920615893125515, -6.250427558272549, 0.0 ], [ 106.920678515703386, -6.250437953129462, 0.0 ] ], [ [ 106.920942697979754, -6.250493769357653, 0.0 ], [ 106.920988393993696, -6.25050940109585, 0.0 ] ], [ [ 106.921013339628161, -6.250516353424473, 0.0 ], [ 106.92102135763156, -6.250516130698569, 0.0 ], [ 106.921025738335146, -6.250515337009125, 0.0 ] ], [ [ 106.916692434794015, -6.252153280642125, 0.0 ], [ 106.916808916713464, -6.251955150565156, 0.0 ], [ 106.916903160166697, -6.251780558241778, 0.0 ], [ 106.916939828405589, -6.251734628712631, 0.0 ], [ 106.9171080469755, -6.25164354017739, 0.0 ], [ 106.917115498390871, -6.251544102539491, 0.0 ], [ 106.917222397813816, -6.25147334269269, 0.0 ], [ 106.917408478987383, -6.251383305540986, 0.0 ], [ 106.917573344879557, -6.251291112548622, 0.0 ], [ 106.917568607111491, -6.251216291727951, 0.0 ], [ 106.91808854124514, -6.251154078682168, 0.0 ], [ 106.918145024734628, -6.251567145297911, 0.0 ] ], [ [ 106.91868637591665, -6.251410034750269, 0.0 ], [ 106.918694546332588, -6.251407271499275, 0.0 ], [ 106.918709415718553, -6.251402242642884, 0.0 ] ], [ [ 106.913467864339523, -6.253040595279022, 0.0 ], [ 106.913482525217148, -6.253390756704523, 0.0 ], [ 106.913671863729405, -6.253391981220808, 0.0 ], [ 106.914004403866912, -6.253329529855488, 0.0 ], [ 106.914122745390657, -6.253265945476523, 0.0 ], [ 106.914198950475054, -6.253185290948791, 0.0 ], [ 106.914349573167016, -6.253058435645055, 0.0 ], [ 106.914524987115527, -6.252912352336261, 0.0 ], [ 106.914668078908804, -6.252818057632944, 0.0 ], [ 106.914786454123984, -6.252764041416892, 0.0 ], [ 106.914857067987384, -6.252723595667268, 0.0 ], [ 106.91490656187797, -6.252660262042252, 0.0 ], [ 106.91491393242444, -6.252583685457099, 0.0 ], [ 106.914915566597415, -6.252507129774366, 0.0 ], [ 106.914947798983334, -6.252430462598725, 0.0 ], [ 106.915172435667401, -6.252146410878296, 0.0 ], [ 106.915231232709289, -6.252012234838743, 0.0 ], [ 106.915284265504127, -6.251870424564145, 0.0 ], [ 106.91532129246751, -6.251812288083406, 0.0 ], [ 106.915401607967112, -6.251810273033135, 0.0 ], [ 106.91548192436575, -6.251808257967446, 0.0 ], [ 106.915562239856683, -6.251806242893054, 0.0 ], [ 106.915642555343126, -6.251804227806535, 0.0 ], [ 106.915701539271197, -6.251811044213991, 0.0 ], [ 106.915759290053984, -6.251824854008278, 0.0 ], [ 106.915822039602759, -6.251856919781782, 0.0 ], [ 106.915884789157474, -6.251888985545449, 0.0 ], [ 106.915947538714903, -6.251921050395064, 0.0 ], [ 106.916010288281655, -6.251953116139005, 0.0 ], [ 106.916071063366175, -6.252011901488833, 0.0 ], [ 106.916131837560556, -6.252070686830889, 0.0 ], [ 106.916192612671964, -6.252129472158225, 0.0 ], [ 106.916195390389646, -6.252209456425148, 0.0 ], [ 106.916198168111805, -6.252289440691587, 0.0 ], [ 106.916200944931788, -6.252369424056706, 0.0 ], [ 106.916203722663099, -6.252449408322142, 0.0 ], [ 106.9162065003989, -6.252529392587094, 0.0 ], [ 106.91624105644874, -6.252565627837107, 0.0 ], [ 106.916318843921687, -6.25256608105457, 0.0 ], [ 106.916396630487895, -6.252566534263748, 0.0 ], [ 106.916474417953992, -6.252566987458084, 0.0 ], [ 106.916552204513479, -6.252567440644151, 0.0 ], [ 106.916594827247351, -6.252574414235235, 0.0 ], [ 106.91666563883183, -6.252603946032539, 0.0 ], [ 106.916734399031441, -6.252607073967068, 0.0 ], [ 106.916803159229261, -6.252610201892357, 0.0 ], [ 106.916871919428232, -6.252613330712458, 0.0 ], [ 106.916940679622186, -6.252616458619257, 0.0 ] ], [ [ 106.916940679622186, -6.252616458619257, 0.0 ], [ 106.916987317088953, -6.252618580456975, 0.0 ], [ 106.917033954554782, -6.252620702290405, 0.0 ], [ 106.917104932787581, -6.252620083523072, 0.0 ], [ 106.917175911020649, -6.252619465650391, 0.0 ], [ 106.91724688924721, -6.252618846864024, 0.0 ], [ 106.917317867470743, -6.252618228068113, 0.0 ], [ 106.917322954527307, -6.252618046765677, 0.0 ], [ 106.91732900906598, -6.252616822188745, 0.0 ], [ 106.917334781779758, -6.252614625800502, 0.0 ], [ 106.917340120183439, -6.25261151511739, 0.0 ], [ 106.917344879122012, -6.25260757565673, 0.0 ], [ 106.917348931576598, -6.252602910952342, 0.0 ], [ 106.917352169584163, -6.252597647071651, 0.0 ], [ 106.917354505114957, -6.252591925379468, 0.0 ], [ 106.917355876380341, -6.252585897994329, 0.0 ], [ 106.917356147290405, -6.252581394459377, 0.0 ], [ 106.917363530532242, -6.252512370064154, 0.0 ], [ 106.917370913778186, -6.252443346573496, 0.0 ], [ 106.9173782970216, -6.25237432217896, 0.0 ], [ 106.917385162764262, -6.252313292144938, 0.0 ], [ 106.917392029410905, -6.252252262107921, 0.0 ], [ 106.917392292707277, -6.252251372391628, 0.0 ], [ 106.917392709790875, -6.252250534553539, 0.0 ], [ 106.917393266327338, -6.252249782098738, 0.0 ], [ 106.91739394432571, -6.252249136791672, 0.0 ], [ 106.917394723987897, -6.252248620403706, 0.0 ], [ 106.917395581872142, -6.252248246582295, 0.0 ], [ 106.917396490919302, -6.252248028083851, 0.0 ], [ 106.917397424947467, -6.252247970428587, 0.0 ], [ 106.917400011890223, -6.252248264776719, 0.0 ], [ 106.917474637338884, -6.252254032070527, 0.0 ], [ 106.917549261885711, -6.252259800260624, 0.0 ], [ 106.917619679135669, -6.252265242310886, 0.0 ] ], [ [ 106.914826276194177, -6.253354294940234, 0.0 ], [ 106.91490664467554, -6.25332282414543, 0.0 ], [ 106.914987012237361, -6.253291352440522, 0.0 ], [ 106.915067380693046, -6.253259881626969, 0.0 ], [ 106.915129653338255, -6.253292188774545, 0.0 ], [ 106.915166292092835, -6.253370395124381, 0.0 ], [ 106.915202930861042, -6.253448601468167, 0.0 ], [ 106.915239569642907, -6.253526807805866, 0.0 ], [ 106.915276207534887, -6.253605014140721, 0.0 ], [ 106.915312846344079, -6.253683220466131, 0.0 ], [ 106.915349485166971, -6.253761426785539, 0.0 ], [ 106.915369621417085, -6.25377666296118, 0.0 ], [ 106.915456583853441, -6.253761833804313, 0.0 ], [ 106.915543547180675, -6.253747003727092, 0.0 ], [ 106.915630509598557, -6.253732174544384, 0.0 ], [ 106.915700672948248, -6.253699265296919, 0.0 ], [ 106.915770836289951, -6.253666356946735, 0.0 ], [ 106.915842336255153, -6.253655869671721, 0.0 ], [ 106.915913836214543, -6.253645382387851, 0.0 ], [ 106.915985335264608, -6.253634895098391, 0.0 ], [ 106.91605683521243, -6.253624407796767, 0.0 ], [ 106.916135147617297, -6.253613895643072, 0.0 ], [ 106.916213460918854, -6.253603383475319, 0.0 ], [ 106.916291773310277, -6.253592871300117, 0.0 ], [ 106.916370085695092, -6.25358235911422, 0.0 ], [ 106.916458234392294, -6.253564814008175, 0.0 ], [ 106.916530447574345, -6.25356981353664, 0.0 ], [ 106.916602661654935, -6.253574812147344, 0.0 ], [ 106.916674874833632, -6.253579811655173, 0.0 ], [ 106.916758596279379, -6.253597244303443, 0.0 ], [ 106.916842317726733, -6.253614676936711, 0.0 ], [ 106.916926039175877, -6.25363210955485, 0.0 ], [ 106.917009760626499, -6.253649542157985, 0.0 ], [ 106.917085351820788, -6.253627693014669, 0.0 ], [ 106.917132805404606, -6.253564889265675, 0.0 ], [ 106.917139196666454, -6.253482000999152, 0.0 ], [ 106.917145588833975, -6.25339911272959, 0.0 ], [ 106.917151980099817, -6.2533162244636, 0.0 ], [ 106.917158372271118, -6.253233336194657, 0.0 ], [ 106.91716476354091, -6.253150447929301, 0.0 ], [ 106.917085708369271, -6.253148504064248, 0.0 ], [ 106.917006653191322, -6.253146559282934, 0.0 ], [ 106.916927598013686, -6.253144615393735, 0.0 ], [ 106.9169297117555, -6.253079500663692, 0.0 ], [ 106.916931824595736, -6.253014385936981, 0.0 ], [ 106.91693393834143, -6.252949271206939, 0.0 ], [ 106.916958286797438, -6.252906721916063, 0.0 ], [ 106.916956502450475, -6.252826889577172, 0.0 ], [ 106.916954717204348, -6.252747057241125, 0.0 ], [ 106.916947912570222, -6.252683748939065, 0.0 ], [ 106.916941107943174, -6.2526204415403, 0.0 ], [ 106.916940679622186, -6.252616458619257, 0.0 ] ] ] } },
{ "type": "Feature", "properties": { "OBJECTID": 200, "toponimi": "Sal. Phb Nusa PLN Makasar", "kewenangan": "Pemprov DKI", "jenis": "Saluran Drainase Tersier", "panjang": "204", "lebar": "4", "kedalaman": "2", "kota": "Jakarta Timur", "kecamatan": "Makasar", "lebar_min": 4.0, "lebar_max": 4.0, "kedalaman_": 2.0, "kedalaman1": 2.0, "Shape_Leng": 0.22651346326 }, "geometry": { "type": "MultiLineString", "coordinates": [ [ [ 106.873267901703031, -6.259871847029596, 0.0 ], [ 106.873350491162597, -6.2599030501038, 0.0 ], [ 106.873433079725203, -6.259934253165312, 0.0 ], [ 106.873484517035635, -6.259944834372549, 0.0 ], [ 106.873535953443266, -6.259955415577379, 0.0 ], [ 106.873581409558184, -6.259964822838097, 0.0 ], [ 106.87363644582409, -6.259978979746572, 0.0 ], [ 106.873691481187862, -6.259993136651536, 0.0 ], [ 106.873736902287803, -6.259992974519747, 0.0 ], [ 106.873818184097431, -6.259992684372233, 0.0 ], [ 106.87386599260725, -6.259991317519143, 0.0 ], [ 106.873913801115478, -6.259989950661768, 0.0 ], [ 106.873983146105374, -6.25999448785253, 0.0 ], [ 106.874023812139313, -6.260001518892975, 0.0 ], [ 106.874076449103526, -6.260013291941219, 0.0 ], [ 106.874160231659729, -6.260044091878154, 0.0 ], [ 106.874227255018454, -6.260067774513876, 0.0 ], [ 106.874294277480701, -6.26009145804662, 0.0 ], [ 106.87436370778066, -6.260119916816297, 0.0 ], [ 106.874409142575004, -6.260123343136032, 0.0 ], [ 106.874454577368709, -6.260126769451672, 0.0 ], [ 106.874514326039503, -6.260121771335942, 0.0 ], [ 106.874574074707297, -6.260116773213745, 0.0 ], [ 106.874650579215967, -6.260117696179677, 0.0 ], [ 106.874727083721595, -6.260118619134371, 0.0 ], [ 106.874795313006132, -6.260120170179734, 0.0 ], [ 106.874863541384869, -6.260121721219362, 0.0 ], [ 106.874931770661675, -6.260123271342582, 0.0 ], [ 106.874999999035936, -6.260124822364272, 0.0 ], [ 106.875087330180563, -6.260127087225331, 0.0 ], [ 106.875174660421322, -6.260129352979005, 0.0 ], [ 106.875261991558816, -6.260131617810554, 0.0 ] ] ] } }
]
}
